<?xml version="1.0" encoding="utf-8"?><gpx creator="Garmin Desktop App" version="1.1" xsi:schemaLocation="http://www.topografix.com/GPX/1/1 http://www.topografix.com/GPX/1/1/gpx.xsd http://www.garmin.com/xmlschemas/WaypointExtension/v1 http://www8.garmin.com/xmlschemas/WaypointExtensionv1.xsd http://www.garmin.com/xmlschemas/TrackPointExtension/v1 http://www.garmin.com/xmlschemas/TrackPointExtensionv1.xsd http://www.garmin.com/xmlschemas/GpxExtensions/v3 http://www8.garmin.com/xmlschemas/GpxExtensionsv3.xsd http://www.garmin.com/xmlschemas/ActivityExtension/v1 http://www8.garmin.com/xmlschemas/ActivityExtensionv1.xsd http://www.garmin.com/xmlschemas/AdventuresExtensions/v1 http://www8.garmin.com/xmlschemas/AdventuresExtensionv1.xsd http://www.garmin.com/xmlschemas/PressureExtension/v1 http://www.garmin.com/xmlschemas/PressureExtensionv1.xsd http://www.garmin.com/xmlschemas/TripExtensions/v1 http://www.garmin.com/xmlschemas/TripExtensionsv1.xsd http://www.garmin.com/xmlschemas/TripMetaDataExtensions/v1 http://www.garmin.com/xmlschemas/TripMetaDataExtensionsv1.xsd http://www.garmin.com/xmlschemas/ViaPointTransportationModeExtensions/v1 http://www.garmin.com/xmlschemas/ViaPointTransportationModeExtensionsv1.xsd http://www.garmin.com/xmlschemas/CreationTimeExtension/v1 http://www.garmin.com/xmlschemas/CreationTimeExtensionsv1.xsd http://www.garmin.com/xmlschemas/AccelerationExtension/v1 http://www.garmin.com/xmlschemas/AccelerationExtensionv1.xsd http://www.garmin.com/xmlschemas/PowerExtension/v1 http://www.garmin.com/xmlschemas/PowerExtensionv1.xsd http://www.garmin.com/xmlschemas/VideoExtension/v1 http://www.garmin.com/xmlschemas/VideoExtensionv1.xsd" xmlns="http://www.topografix.com/GPX/1/1" xmlns:xsi="http://www.w3.org/2001/XMLSchema-instance" xmlns:wptx1="http://www.garmin.com/xmlschemas/WaypointExtension/v1" xmlns:gpxtrx="http://www.garmin.com/xmlschemas/GpxExtensions/v3" xmlns:gpxtpx="http://www.garmin.com/xmlschemas/TrackPointExtension/v1" xmlns:gpxx="http://www.garmin.com/xmlschemas/GpxExtensions/v3" xmlns:trp="http://www.garmin.com/xmlschemas/TripExtensions/v1" xmlns:adv="http://www.garmin.com/xmlschemas/AdventuresExtensions/v1" xmlns:prs="http://www.garmin.com/xmlschemas/PressureExtension/v1" xmlns:tmd="http://www.garmin.com/xmlschemas/TripMetaDataExtensions/v1" xmlns:vptm="http://www.garmin.com/xmlschemas/ViaPointTransportationModeExtensions/v1" xmlns:ctx="http://www.garmin.com/xmlschemas/CreationTimeExtension/v1" xmlns:gpxacc="http://www.garmin.com/xmlschemas/AccelerationExtension/v1" xmlns:gpxpx="http://www.garmin.com/xmlschemas/PowerExtension/v1" xmlns:vidx1="http://www.garmin.com/xmlschemas/VideoExtension/v1">

  <metadata>
    <link href="http://www.garmin.com">
      <text>Garmin International</text>
    </link>
    <time>2026-05-10T12:39:39Z</time>
    <bounds maxlat="42.876550024375319" maxlon="-0.810934966430068" minlat="42.859056992456317" minlon="-0.92375697568059" />
  </metadata>

  <trk>
    <name>GR11_08_Isaba-Zuriza(Belabarze)</name>
    <extensions>
      <gpxx:TrackExtension>
        <gpxx:DisplayColor>DarkGreen</gpxx:DisplayColor>
      </gpxx:TrackExtension>
    </extensions>
    <trkseg>
      <trkpt lat="42.860427014529705" lon="-0.92375697568059">
        <ele>748</ele>
      </trkpt>
      <trkpt lat="42.860422991216183" lon="-0.92356201261282">
        <ele>748</ele>
      </trkpt>
      <trkpt lat="42.860417040064931" lon="-0.92354298569262">
        <ele>748</ele>
      </trkpt>
      <trkpt lat="42.860364988446236" lon="-0.923320027068257">
        <ele>747</ele>
      </trkpt>
      <trkpt lat="42.860315032303333" lon="-0.92306999489665">
        <ele>747</ele>
      </trkpt>
      <trkpt lat="42.860307991504669" lon="-0.923001011833549">
        <ele>747</ele>
      </trkpt>
      <trkpt lat="42.86024403758347" lon="-0.922779981046915">
        <ele>747</ele>
      </trkpt>
      <trkpt lat="42.860228028148413" lon="-0.922736981883645">
        <ele>747</ele>
      </trkpt>
      <trkpt lat="42.860230039805174" lon="-0.922654001042247">
        <ele>747</ele>
      </trkpt>
      <trkpt lat="42.860186034813523" lon="-0.922571020200849">
        <ele>747</ele>
      </trkpt>
      <trkpt lat="42.860103975981474" lon="-0.922262985259295">
        <ele>750</ele>
      </trkpt>
      <trkpt lat="42.860089978203177" lon="-0.922230966389179">
        <ele>750</ele>
      </trkpt>
      <trkpt lat="42.860072962939739" lon="-0.92216701246798">
        <ele>751</ele>
      </trkpt>
      <trkpt lat="42.859942959621549" lon="-0.922013958916068">
        <ele>753</ele>
      </trkpt>
      <trkpt lat="42.859761994332075" lon="-0.921745989471674">
        <ele>756</ele>
      </trkpt>
      <trkpt lat="42.859646994620562" lon="-0.921662002801895">
        <ele>756</ele>
      </trkpt>
      <trkpt lat="42.859630985185504" lon="-0.921646999195218">
        <ele>756</ele>
      </trkpt>
      <trkpt lat="42.859574994072318" lon="-0.921583967283368">
        <ele>757</ele>
      </trkpt>
      <trkpt lat="42.859537024050951" lon="-0.921572986990213">
        <ele>756</ele>
      </trkpt>
      <trkpt lat="42.85951497964561" lon="-0.921540968120098">
        <ele>755</ele>
      </trkpt>
      <trkpt lat="42.859419006854296" lon="-0.921481037512422">
        <ele>756</ele>
      </trkpt>
      <trkpt lat="42.859388999640942" lon="-0.921447006985545">
        <ele>756</ele>
      </trkpt>
      <trkpt lat="42.859241981059313" lon="-0.921294037252665">
        <ele>755</ele>
      </trkpt>
      <trkpt lat="42.859219014644623" lon="-0.921275010332465">
        <ele>755</ele>
      </trkpt>
      <trkpt lat="42.85917199216783" lon="-0.921162022277713">
        <ele>755</ele>
      </trkpt>
      <trkpt lat="42.859086999669671" lon="-0.920944008976221">
        <ele>755</ele>
      </trkpt>
      <trkpt lat="42.85906596109271" lon="-0.92083403840661">
        <ele>755</ele>
      </trkpt>
      <trkpt lat="42.859056992456317" lon="-0.920606972649693">
        <ele>757</ele>
      </trkpt>
      <trkpt lat="42.859059004113078" lon="-0.92036297544837">
        <ele>757</ele>
      </trkpt>
      <trkpt lat="42.859079036861658" lon="-0.920279994606972">
        <ele>758</ele>
      </trkpt>
      <trkpt lat="42.859079036861658" lon="-0.920279994606972">
        <ele>758</ele>
      </trkpt>
      <trkpt lat="42.85910602658987" lon="-0.920153008773923">
        <ele>759</ele>
      </trkpt>
      <trkpt lat="42.859110971912742" lon="-0.920120989903808">
        <ele>759</ele>
      </trkpt>
      <trkpt lat="42.859111977741122" lon="-0.920107997953892">
        <ele>759</ele>
      </trkpt>
      <trkpt lat="42.859103009104729" lon="-0.920128030702472">
        <ele>759</ele>
      </trkpt>
      <trkpt lat="42.859103009104729" lon="-0.920130964368582">
        <ele>759</ele>
      </trkpt>
      <trkpt lat="42.859107032418251" lon="-0.920098023489118">
        <ele>759</ele>
      </trkpt>
      <trkpt lat="42.859221026301384" lon="-0.919842040166259">
        <ele>760</ele>
      </trkpt>
      <trkpt lat="42.85929998382926" lon="-0.919698039069772">
        <ele>761</ele>
      </trkpt>
      <trkpt lat="42.859311969950795" lon="-0.919669037684798">
        <ele>761</ele>
      </trkpt>
      <trkpt lat="42.859387993812561" lon="-0.91943702660501">
        <ele>763</ele>
      </trkpt>
      <trkpt lat="42.859394028782845" lon="-0.919425962492824">
        <ele>763</ele>
      </trkpt>
      <trkpt lat="42.859414983540773" lon="-0.91937399469316">
        <ele>764</ele>
      </trkpt>
      <trkpt lat="42.859426969662309" lon="-0.919350022450089">
        <ele>764</ele>
      </trkpt>
      <trkpt lat="42.859458988532424" lon="-0.919238962233067">
        <ele>766</ele>
      </trkpt>
      <trkpt lat="42.8594930190593" lon="-0.919049028307199">
        <ele>768</ele>
      </trkpt>
      <trkpt lat="42.859500981867313" lon="-0.919017009437084">
        <ele>768</ele>
      </trkpt>
      <trkpt lat="42.859491007402539" lon="-0.91894299723208">
        <ele>769</ele>
      </trkpt>
      <trkpt lat="42.859526965767145" lon="-0.918736970052123">
        <ele>771</ele>
      </trkpt>
      <trkpt lat="42.859530989080667" lon="-0.91870796866715">
        <ele>771</ele>
      </trkpt>
      <trkpt lat="42.85955898463726" lon="-0.91851401142776">
        <ele>774</ele>
      </trkpt>
      <trkpt lat="42.859542975202203" lon="-0.918317036703229">
        <ele>776</ele>
      </trkpt>
      <trkpt lat="42.85951497964561" lon="-0.918095000088215">
        <ele>777</ele>
      </trkpt>
      <trkpt lat="42.859497964382172" lon="-0.917985029518604">
        <ele>778</ele>
      </trkpt>
      <trkpt lat="42.859476003795862" lon="-0.917769027873874">
        <ele>780</ele>
      </trkpt>
      <trkpt lat="42.859473992139101" lon="-0.917681017890573">
        <ele>780</ele>
      </trkpt>
      <trkpt lat="42.859469968825579" lon="-0.917392009869218">
        <ele>783</ele>
      </trkpt>
      <trkpt lat="42.859486984089017" lon="-0.917212972417474">
        <ele>785</ele>
      </trkpt>
      <trkpt lat="42.859485978260636" lon="-0.917105013504624">
        <ele>786</ele>
      </trkpt>
      <trkpt lat="42.859494024887681" lon="-0.917037958279252">
        <ele>786</ele>
      </trkpt>
      <trkpt lat="42.859497964382172" lon="-0.916964029893279">
        <ele>787</ele>
      </trkpt>
      <trkpt lat="42.85947198048234" lon="-0.916715003550053">
        <ele>788</ele>
      </trkpt>
      <trkpt lat="42.859427975490689" lon="-0.91647301800549">
        <ele>790</ele>
      </trkpt>
      <trkpt lat="42.859396962448955" lon="-0.916223991662264">
        <ele>790</ele>
      </trkpt>
      <trkpt lat="42.859413977712393" lon="-0.916068004444242">
        <ele>790</ele>
      </trkpt>
      <trkpt lat="42.859413977712393" lon="-0.916068004444242">
        <ele>788</ele>
      </trkpt>
      <trkpt lat="42.859412971884012" lon="-0.91606599278748">
        <ele>788</ele>
      </trkpt>
      <trkpt lat="42.859411966055632" lon="-0.916037997230887">
        <ele>788</ele>
      </trkpt>
      <trkpt lat="42.859433004632592" lon="-0.915906988084316">
        <ele>788</ele>
      </trkpt>
      <trkpt lat="42.859544986858964" lon="-0.915712025016546">
        <ele>788</ele>
      </trkpt>
      <trkpt lat="42.859573988243937" lon="-0.915687968954444">
        <ele>788</ele>
      </trkpt>
      <trkpt lat="42.859632996842265" lon="-0.915611023083329">
        <ele>788</ele>
      </trkpt>
      <trkpt lat="42.859763000160456" lon="-0.915433997288346">
        <ele>788</ele>
      </trkpt>
      <trkpt lat="42.859852015972137" lon="-0.915215983986855">
        <ele>788</ele>
      </trkpt>
      <trkpt lat="42.859910018742085" lon="-0.915015991777182">
        <ele>789</ele>
      </trkpt>
      <trkpt lat="42.859947988763452" lon="-0.914901997894049">
        <ele>790</ele>
      </trkpt>
      <trkpt lat="42.86000800319016" lon="-0.914683984592557">
        <ele>790</ele>
      </trkpt>
      <trkpt lat="42.860040022060275" lon="-0.914322976022959">
        <ele>791</ele>
      </trkpt>
      <trkpt lat="42.86003096960485" lon="-0.914043020457029">
        <ele>791</ele>
      </trkpt>
      <trkpt lat="42.860003979876637" lon="-0.913812015205622">
        <ele>792</ele>
      </trkpt>
      <trkpt lat="42.859963998198509" lon="-0.913555026054382">
        <ele>792</ele>
      </trkpt>
      <trkpt lat="42.859953017905354" lon="-0.913498029112816">
        <ele>792</ele>
      </trkpt>
      <trkpt lat="42.859925022348762" lon="-0.913276998326182">
        <ele>791</ele>
      </trkpt>
      <trkpt lat="42.85989903844893" lon="-0.913069965317845">
        <ele>790</ele>
      </trkpt>
      <trkpt lat="42.859882023185492" lon="-0.912994025275111">
        <ele>790</ele>
      </trkpt>
      <trkpt lat="42.859882023185492" lon="-0.912994025275111">
        <ele>790</ele>
      </trkpt>
      <trkpt lat="42.859882023185492" lon="-0.912982961162925">
        <ele>790</ele>
      </trkpt>
      <trkpt lat="42.859872970730066" lon="-0.912879025563598">
        <ele>790</ele>
      </trkpt>
      <trkpt lat="42.859875988215208" lon="-0.912855975329876">
        <ele>790</ele>
      </trkpt>
      <trkpt lat="42.859899960458279" lon="-0.912784980610013">
        <ele>790</ele>
      </trkpt>
      <trkpt lat="42.859933990985155" lon="-0.912728989496827">
        <ele>789</ele>
      </trkpt>
      <trkpt lat="42.85996600985527" lon="-0.912681967020035">
        <ele>789</ele>
      </trkpt>
      <trkpt lat="42.860000040382147" lon="-0.912618013098836">
        <ele>789</ele>
      </trkpt>
      <trkpt lat="42.860026024281979" lon="-0.912573002278805">
        <ele>788</ele>
      </trkpt>
      <trkpt lat="42.86011403426528" lon="-0.912481974810362">
        <ele>788</ele>
      </trkpt>
      <trkpt lat="42.860183017328382" lon="-0.91243302449584">
        <ele>786</ele>
      </trkpt>
      <trkpt lat="42.860340010374784" lon="-0.912293968722224">
        <ele>784</ele>
      </trkpt>
      <trkpt lat="42.860363982617855" lon="-0.912262033671141">
        <ele>784</ele>
      </trkpt>
      <trkpt lat="42.860431037843227" lon="-0.912167988717556">
        <ele>783</ele>
      </trkpt>
      <trkpt lat="42.86046096123755" lon="-0.912125995382667">
        <ele>783</ele>
      </trkpt>
      <trkpt lat="42.860484011471272" lon="-0.912043014541268">
        <ele>782</ele>
      </trkpt>
      <trkpt lat="42.860484011471272" lon="-0.912043014541268">
        <ele>782</ele>
      </trkpt>
      <trkpt lat="42.860489962622523" lon="-0.912032034248114">
        <ele>781</ele>
      </trkpt>
      <trkpt lat="42.860498009249568" lon="-0.912022981792688">
        <ele>781</ele>
      </trkpt>
      <trkpt lat="42.860628012567759" lon="-0.911858025938272">
        <ele>781</ele>
      </trkpt>
      <trkpt lat="42.860753992572427" lon="-0.911689968779683">
        <ele>783</ele>
      </trkpt>
      <trkpt lat="42.860848037526011" lon="-0.911398027092218">
        <ele>784</ele>
      </trkpt>
      <trkpt lat="42.860863041132689" lon="-0.911349998787045">
        <ele>784</ele>
      </trkpt>
      <trkpt lat="42.860857006162405" lon="-0.911041963845491">
        <ele>787</ele>
      </trkpt>
      <trkpt lat="42.860842002555728" lon="-0.910772988572717">
        <ele>789</ele>
      </trkpt>
      <trkpt lat="42.860849965363741" lon="-0.910463025793433">
        <ele>792</ele>
      </trkpt>
      <trkpt lat="42.860850971192122" lon="-0.910432012751698">
        <ele>792</ele>
      </trkpt>
      <trkpt lat="42.860848037526011" lon="-0.910172006115317">
        <ele>794</ele>
      </trkpt>
      <trkpt lat="42.860861029475927" lon="-0.909890038892627">
        <ele>796</ele>
      </trkpt>
      <trkpt lat="42.860864968970418" lon="-0.909698009490967">
        <ele>798</ele>
      </trkpt>
      <trkpt lat="42.860878966748714" lon="-0.909607987850904">
        <ele>798</ele>
      </trkpt>
      <trkpt lat="42.860936969518661" lon="-0.909288972616196">
        <ele>800</ele>
      </trkpt>
      <trkpt lat="42.860950967296958" lon="-0.909151006489992">
        <ele>800</ele>
      </trkpt>
      <trkpt lat="42.86097502335906" lon="-0.908825034275651">
        <ele>801</ele>
      </trkpt>
      <trkpt lat="42.860990026965737" lon="-0.908686984330416">
        <ele>802</ele>
      </trkpt>
      <trkpt lat="42.860998995602131" lon="-0.908341985195875">
        <ele>804</ele>
      </trkpt>
      <trkpt lat="42.860998995602131" lon="-0.908105028793216">
        <ele>805</ele>
      </trkpt>
      <trkpt lat="42.860995978116989" lon="-0.908067980781198">
        <ele>805</ele>
      </trkpt>
      <trkpt lat="42.861008970066905" lon="-0.907747959718108">
        <ele>808</ele>
      </trkpt>
      <trkpt lat="42.861011987552047" lon="-0.907688029110432">
        <ele>807</ele>
      </trkpt>
      <trkpt lat="42.861029002815485" lon="-0.907606976106763">
        <ele>808</ele>
      </trkpt>
      <trkpt lat="42.861034031957388" lon="-0.907503962516785">
        <ele>809</ele>
      </trkpt>
      <trkpt lat="42.86104098893702" lon="-0.907239010557532">
        <ele>811</ele>
      </trkpt>
      <trkpt lat="42.86106001585722" lon="-0.906917983666062">
        <ele>812</ele>
      </trkpt>
      <trkpt lat="42.861064961180091" lon="-0.906816981732845">
        <ele>813</ele>
      </trkpt>
      <trkpt lat="42.861076025292277" lon="-0.906450022011995">
        <ele>814</ele>
      </trkpt>
      <trkpt lat="42.861097985878587" lon="-0.906165959313512">
        <ele>816</ele>
      </trkpt>
      <trkpt lat="42.861124975606799" lon="-0.905862031504512">
        <ele>818</ele>
      </trkpt>
      <trkpt lat="42.861127993091941" lon="-0.905469004064798">
        <ele>820</ele>
      </trkpt>
      <trkpt lat="42.861127993091941" lon="-0.905393986031413">
        <ele>820</ele>
      </trkpt>
      <trkpt lat="42.861140985041857" lon="-0.905029037967324">
        <ele>822</ele>
      </trkpt>
      <trkpt lat="42.861185995861888" lon="-0.904646990820766">
        <ele>823</ele>
      </trkpt>
      <trkpt lat="42.861241986975074" lon="-0.904307020828128">
        <ele>824</ele>
      </trkpt>
      <trkpt lat="42.861355980858207" lon="-0.903971996158361">
        <ele>824</ele>
      </trkpt>
      <trkpt lat="42.861483972519636" lon="-0.903739985078573">
        <ele>824</ele>
      </trkpt>
      <trkpt lat="42.861563013866544" lon="-0.903485007584095">
        <ele>824</ele>
      </trkpt>
      <trkpt lat="42.861622022464871" lon="-0.903209997341037">
        <ele>824</ele>
      </trkpt>
      <trkpt lat="42.861649012193084" lon="-0.902886036783457">
        <ele>824</ele>
      </trkpt>
      <trkpt lat="42.861647000536323" lon="-0.902535002678633">
        <ele>825</ele>
      </trkpt>
      <trkpt lat="42.861645994707942" lon="-0.902244988828897">
        <ele>826</ele>
      </trkpt>
      <trkpt lat="42.861716989427805" lon="-0.901941983029246">
        <ele>829</ele>
      </trkpt>
      <trkpt lat="42.861880017444491" lon="-0.901750959455967">
        <ele>831</ele>
      </trkpt>
      <trkpt lat="42.862002979964018" lon="-0.901606036350131">
        <ele>832</ele>
      </trkpt>
      <trkpt lat="42.862104987725616" lon="-0.901378970593214">
        <ele>834</ele>
      </trkpt>
      <trkpt lat="42.862142035737634" lon="-0.90130303055048">
        <ele>835</ele>
      </trkpt>
      <trkpt lat="42.862225016579032" lon="-0.901218960061669">
        <ele>835</ele>
      </trkpt>
      <trkpt lat="42.862262986600399" lon="-0.901171015575528">
        <ele>836</ele>
      </trkpt>
      <trkpt lat="42.862391984090209" lon="-0.900949984788895">
        <ele>838</ele>
      </trkpt>
      <trkpt lat="42.862494997680187" lon="-0.900741023942828">
        <ele>840</ele>
      </trkpt>
      <trkpt lat="42.862541014328599" lon="-0.900655025616288">
        <ele>841</ele>
      </trkpt>
      <trkpt lat="42.862620977684855" lon="-0.900435000658035">
        <ele>843</ele>
      </trkpt>
      <trkpt lat="42.862692978233099" lon="-0.900253029540181">
        <ele>845</ele>
      </trkpt>
      <trkpt lat="42.862756010144949" lon="-0.900030992925167">
        <ele>848</ele>
      </trkpt>
      <trkpt lat="42.862819964066148" lon="-0.899791019037366">
        <ele>850</ele>
      </trkpt>
      <trkpt lat="42.862872015684843" lon="-0.899654980748892">
        <ele>852</ele>
      </trkpt>
      <trkpt lat="42.862959019839764" lon="-0.899489019066095">
        <ele>853</ele>
      </trkpt>
      <trkpt lat="42.863118024542928" lon="-0.899249967187643">
        <ele>856</ele>
      </trkpt>
      <trkpt lat="42.863244004547596" lon="-0.899115018546581">
        <ele>857</ele>
      </trkpt>
      <trkpt lat="42.863441985100508" lon="-0.898888036608696">
        <ele>859</ele>
      </trkpt>
      <trkpt lat="42.863462017849088" lon="-0.89885400608182">
        <ele>859</ele>
      </trkpt>
      <trkpt lat="42.86357500590384" lon="-0.898586036637425">
        <ele>859</ele>
      </trkpt>
      <trkpt lat="42.863677013665438" lon="-0.898299040272832">
        <ele>860</ele>
      </trkpt>
      <trkpt lat="42.86376996897161" lon="-0.897984970360994">
        <ele>860</ele>
      </trkpt>
      <trkpt lat="42.863895026966929" lon="-0.897709960117936">
        <ele>861</ele>
      </trkpt>
      <trkpt lat="42.864008015021682" lon="-0.897534023970366">
        <ele>862</ele>
      </trkpt>
      <trkpt lat="42.864063000306487" lon="-0.897449031472206">
        <ele>862</ele>
      </trkpt>
      <trkpt lat="42.864139024168253" lon="-0.89726697653532">
        <ele>862</ele>
      </trkpt>
      <trkpt lat="42.864201972261071" lon="-0.897103026509285">
        <ele>862</ele>
      </trkpt>
      <trkpt lat="42.864233991131186" lon="-0.897004036232829">
        <ele>862</ele>
      </trkpt>
      <trkpt lat="42.864244971424341" lon="-0.896961037069559">
        <ele>862</ele>
      </trkpt>
      <trkpt lat="42.864287970587611" lon="-0.896888030692935">
        <ele>862</ele>
      </trkpt>
      <trkpt lat="42.864312026649714" lon="-0.896821981295943">
        <ele>863</ele>
      </trkpt>
      <trkpt lat="42.864409005269408" lon="-0.896639004349709">
        <ele>863</ele>
      </trkpt>
      <trkpt lat="42.864439012482762" lon="-0.896608997136354">
        <ele>863</ele>
      </trkpt>
      <trkpt lat="42.864458039402962" lon="-0.896565997973084">
        <ele>863</ele>
      </trkpt>
      <trkpt lat="42.864521993324161" lon="-0.896487040445209">
        <ele>864</ele>
      </trkpt>
      <trkpt lat="42.864683009684086" lon="-0.896332981064916">
        <ele>867</ele>
      </trkpt>
      <trkpt lat="42.864701030775905" lon="-0.896308002993464">
        <ele>868</ele>
      </trkpt>
      <trkpt lat="42.864829022437334" lon="-0.896172970533371">
        <ele>870</ele>
      </trkpt>
      <trkpt lat="42.864890964701772" lon="-0.896143969148397">
        <ele>871</ele>
      </trkpt>
      <trkpt lat="42.864947961643338" lon="-0.896127037703991">
        <ele>872</ele>
      </trkpt>
      <trkpt lat="42.864974029362202" lon="-0.896131983026862">
        <ele>872</ele>
      </trkpt>
      <trkpt lat="42.865129010751843" lon="-0.896179005503654">
        <ele>873</ele>
      </trkpt>
      <trkpt lat="42.865152982994914" lon="-0.896188979968429">
        <ele>874</ele>
      </trkpt>
      <trkpt lat="42.865267982706428" lon="-0.896207001060247">
        <ele>875</ele>
      </trkpt>
      <trkpt lat="42.865333026275039" lon="-0.896236002445221">
        <ele>875</ele>
      </trkpt>
      <trkpt lat="42.865391029044986" lon="-0.896239019930363">
        <ele>876</ele>
      </trkpt>
      <trkpt lat="42.865563025698066" lon="-0.896338010206819">
        <ele>878</ele>
      </trkpt>
      <trkpt lat="42.865580962970853" lon="-0.896355025470257">
        <ele>878</ele>
      </trkpt>
      <trkpt lat="42.865669978782535" lon="-0.896464996039867">
        <ele>880</ele>
      </trkpt>
      <trkpt lat="42.865823032334447" lon="-0.896643027663231">
        <ele>881</ele>
      </trkpt>
      <trkpt lat="42.866013972088695" lon="-0.896689966320992">
        <ele>883</ele>
      </trkpt>
      <trkpt lat="42.866161996498704" lon="-0.896671023219824">
        <ele>885</ele>
      </trkpt>
      <trkpt lat="42.866183035075665" lon="-0.896668005734682">
        <ele>885</ele>
      </trkpt>
      <trkpt lat="42.866254029795527" lon="-0.896639004349709">
        <ele>885</ele>
      </trkpt>
      <trkpt lat="42.866293005645275" lon="-0.896646967157722">
        <ele>886</ele>
      </trkpt>
      <trkpt lat="42.866400964558125" lon="-0.896630035713315">
        <ele>887</ele>
      </trkpt>
      <trkpt lat="42.866462990641594" lon="-0.896615032106638">
        <ele>887</ele>
      </trkpt>
      <trkpt lat="42.866618977859616" lon="-0.896601034328341">
        <ele>888</ele>
      </trkpt>
      <trkpt lat="42.866775970906019" lon="-0.896614026278257">
        <ele>890</ele>
      </trkpt>
      <trkpt lat="42.866964982822537" lon="-0.896575972437859">
        <ele>893</ele>
      </trkpt>
      <trkpt lat="42.866987027227879" lon="-0.896573960781097">
        <ele>894</ele>
      </trkpt>
      <trkpt lat="42.867139996960759" lon="-0.896572032943368">
        <ele>896</ele>
      </trkpt>
      <trkpt lat="42.86729397252202" lon="-0.896632969379425">
        <ele>899</ele>
      </trkpt>
      <trkpt lat="42.86740000359714" lon="-0.896659037098289">
        <ele>900</ele>
      </trkpt>
      <trkpt lat="42.867496982216835" lon="-0.896630035713315">
        <ele>902</ele>
      </trkpt>
      <trkpt lat="42.86759496666491" lon="-0.89662198908627">
        <ele>903</ele>
      </trkpt>
      <trkpt lat="42.867795964702964" lon="-0.896487962454557">
        <ele>905</ele>
      </trkpt>
      <trkpt lat="42.867969973012805" lon="-0.896343039348722">
        <ele>907</ele>
      </trkpt>
      <trkpt lat="42.867994029074907" lon="-0.896324012428522">
        <ele>907</ele>
      </trkpt>
      <trkpt lat="42.868116991594434" lon="-0.896225022152066">
        <ele>907</ele>
      </trkpt>
      <trkpt lat="42.868246994912624" lon="-0.896096024662256">
        <ele>907</ele>
      </trkpt>
      <trkpt lat="42.868272978812456" lon="-0.896050008013844">
        <ele>907</ele>
      </trkpt>
      <trkpt lat="42.868329975754023" lon="-0.89595596306026">
        <ele>907</ele>
      </trkpt>
      <trkpt lat="42.868402982130647" lon="-0.895853033289313">
        <ele>907</ele>
      </trkpt>
      <trkpt lat="42.86853801459074" lon="-0.895585985854268">
        <ele>908</ele>
      </trkpt>
      <trkpt lat="42.86862401291728" lon="-0.8954409789294">
        <ele>909</ele>
      </trkpt>
      <trkpt lat="42.868681009858847" lon="-0.89535498060286">
        <ele>909</ele>
      </trkpt>
      <trkpt lat="42.868833979591727" lon="-0.895136967301369">
        <ele>911</ele>
      </trkpt>
      <trkpt lat="42.868978986516595" lon="-0.894997995346785">
        <ele>911</ele>
      </trkpt>
      <trkpt lat="42.869035983458161" lon="-0.894957007840276">
        <ele>912</ele>
      </trkpt>
      <trkpt lat="42.869218960404396" lon="-0.894723990932107">
        <ele>912</ele>
      </trkpt>
      <trkpt lat="42.869318034499884" lon="-0.894595999270678">
        <ele>913</ele>
      </trkpt>
      <trkpt lat="42.869400009512901" lon="-0.894219987094402">
        <ele>915</ele>
      </trkpt>
      <trkpt lat="42.86941803060472" lon="-0.893919998779893">
        <ele>916</ele>
      </trkpt>
      <trkpt lat="42.869433034211397" lon="-0.893640965223312">
        <ele>917</ele>
      </trkpt>
      <trkpt lat="42.869436973705888" lon="-0.893553961068392">
        <ele>918</ele>
      </trkpt>
      <trkpt lat="42.869438985362649" lon="-0.893522026017308">
        <ele>918</ele>
      </trkpt>
      <trkpt lat="42.8694639634341" lon="-0.893374001607299">
        <ele>919</ele>
      </trkpt>
      <trkpt lat="42.869522972032428" lon="-0.893053980544209">
        <ele>921</ele>
      </trkpt>
      <trkpt lat="42.869578963145614" lon="-0.892824986949563">
        <ele>924</ele>
      </trkpt>
      <trkpt lat="42.869665967300534" lon="-0.892617031931877">
        <ele>926</ele>
      </trkpt>
      <trkpt lat="42.869769986718893" lon="-0.892382003366947">
        <ele>928</ele>
      </trkpt>
      <trkpt lat="42.869900995865464" lon="-0.892102969810367">
        <ele>930</ele>
      </trkpt>
      <trkpt lat="42.870033010840416" lon="-0.891881017014384">
        <ele>932</ele>
      </trkpt>
      <trkpt lat="42.870197966694832" lon="-0.89165898039937">
        <ele>933</ele>
      </trkpt>
      <trkpt lat="42.870353031903505" lon="-0.891438033431768">
        <ele>934</ele>
      </trkpt>
      <trkpt lat="42.870426038280129" lon="-0.891223959624767">
        <ele>934</ele>
      </trkpt>
      <trkpt lat="42.870457973331213" lon="-0.891154976561666">
        <ele>934</ele>
      </trkpt>
      <trkpt lat="42.870543971657753" lon="-0.89088398963213">
        <ele>933</ele>
      </trkpt>
      <trkpt lat="42.870556963607669" lon="-0.890848031267524">
        <ele>933</ele>
      </trkpt>
      <trkpt lat="42.870594011619687" lon="-0.890720039606094">
        <ele>933</ele>
      </trkpt>
      <trkpt lat="42.870685961097479" lon="-0.890551982447505">
        <ele>932</ele>
      </trkpt>
      <trkpt lat="42.870784029364586" lon="-0.89023900218308">
        <ele>932</ele>
      </trkpt>
      <trkpt lat="42.870914032682776" lon="-0.890070023015141">
        <ele>934</ele>
      </trkpt>
      <trkpt lat="42.871038001030684" lon="-0.889872964471579">
        <ele>934</ele>
      </trkpt>
      <trkpt lat="42.871188959106803" lon="-0.889580016955733">
        <ele>935</ele>
      </trkpt>
      <trkpt lat="42.871262971311808" lon="-0.889347000047565">
        <ele>935</ele>
      </trkpt>
      <trkpt lat="42.871291972696781" lon="-0.889191012829542">
        <ele>935</ele>
      </trkpt>
      <trkpt lat="42.871318040415645" lon="-0.888853976503015">
        <ele>936</ele>
      </trkpt>
      <trkpt lat="42.871345030143857" lon="-0.888679968193173">
        <ele>936</ele>
      </trkpt>
      <trkpt lat="42.871349975466728" lon="-0.888652978464961">
        <ele>936</ele>
      </trkpt>
      <trkpt lat="42.871367996558547" lon="-0.888378974050283">
        <ele>937</ele>
      </trkpt>
      <trkpt lat="42.871353998780251" lon="-0.888246959075332">
        <ele>937</ele>
      </trkpt>
      <trkpt lat="42.871376965194941" lon="-0.888108992949128">
        <ele>937</ele>
      </trkpt>
      <trkpt lat="42.871488025411963" lon="-0.887967003509402">
        <ele>937</ele>
      </trkpt>
      <trkpt lat="42.871539993211627" lon="-0.887925010174513">
        <ele>937</ele>
      </trkpt>
      <trkpt lat="42.871594978496432" lon="-0.887872958555818">
        <ele>937</ele>
      </trkpt>
      <trkpt lat="42.871688017621636" lon="-0.887797018513083">
        <ele>937</ele>
      </trkpt>
      <trkpt lat="42.871749959886074" lon="-0.88770498521626">
        <ele>938</ele>
      </trkpt>
      <trkpt lat="42.871874012053013" lon="-0.887599037960172">
        <ele>939</ele>
      </trkpt>
      <trkpt lat="42.871903013437986" lon="-0.887573976069689">
        <ele>939</ele>
      </trkpt>
      <trkpt lat="42.871923968195915" lon="-0.887536006048322">
        <ele>940</ele>
      </trkpt>
      <trkpt lat="42.871999992057681" lon="-0.887327967211604">
        <ele>941</ele>
      </trkpt>
      <trkpt lat="42.872065035626292" lon="-0.887185977771878">
        <ele>942</ele>
      </trkpt>
      <trkpt lat="42.872094037011266" lon="-0.887065026909113">
        <ele>944</ele>
      </trkpt>
      <trkpt lat="42.872132007032633" lon="-0.886982968077064">
        <ele>946</ele>
      </trkpt>
      <trkpt lat="42.872174000367522" lon="-0.886884983628988">
        <ele>949</ele>
      </trkpt>
      <trkpt lat="42.872220017015934" lon="-0.886783981695771">
        <ele>958</ele>
      </trkpt>
      <trkpt lat="42.872291011735797" lon="-0.886674011126161">
        <ele>960</ele>
      </trkpt>
      <trkpt lat="42.872327975928783" lon="-0.886613996699452">
        <ele>962</ele>
      </trkpt>
      <trkpt lat="42.872394025325775" lon="-0.886453986167908">
        <ele>965</ele>
      </trkpt>
      <trkpt lat="42.872460996732116" lon="-0.886281989514828">
        <ele>967</ele>
      </trkpt>
      <trkpt lat="42.872520005330443" lon="-0.886202026158571">
        <ele>969</ele>
      </trkpt>
      <trkpt lat="42.872579013928771" lon="-0.886042015627027">
        <ele>971</ele>
      </trkpt>
      <trkpt lat="42.872608015313745" lon="-0.885927015915513">
        <ele>974</ele>
      </trkpt>
      <trkpt lat="42.872608015313745" lon="-0.885927015915513">
        <ele>974</ele>
      </trkpt>
      <trkpt lat="42.872641962021589" lon="-0.885819979012012">
        <ele>975</ele>
      </trkpt>
      <trkpt lat="42.872659983113408" lon="-0.885704979300499">
        <ele>978</ele>
      </trkpt>
      <trkpt lat="42.872689990326762" lon="-0.885544968768954">
        <ele>980</ele>
      </trkpt>
      <trkpt lat="42.87275000475347" lon="-0.885365009307861">
        <ele>982</ele>
      </trkpt>
      <trkpt lat="42.872801972553134" lon="-0.885201981291175">
        <ele>985</ele>
      </trkpt>
      <trkpt lat="42.872828040271997" lon="-0.885092010721564">
        <ele>987</ele>
      </trkpt>
      <trkpt lat="42.872838014736772" lon="-0.885078012943268">
        <ele>988</ele>
      </trkpt>
      <trkpt lat="42.872845977544785" lon="-0.885010035708547">
        <ele>992</ele>
      </trkpt>
      <trkpt lat="42.872906997799873" lon="-0.884833009913564">
        <ele>994</ele>
      </trkpt>
      <trkpt lat="42.872949996963143" lon="-0.88471801020205">
        <ele>995</ele>
      </trkpt>
      <trkpt lat="42.872978998348117" lon="-0.884577026590705">
        <ele>997</ele>
      </trkpt>
      <trkpt lat="42.873042030259967" lon="-0.884451968595386">
        <ele>998</ele>
      </trkpt>
      <trkpt lat="42.873080000281334" lon="-0.884363958612084">
        <ele>1000</ele>
      </trkpt>
      <trkpt lat="42.8731369972229" lon="-0.884204031899571">
        <ele>1002</ele>
      </trkpt>
      <trkpt lat="42.87322198972106" lon="-0.884068999439478">
        <ele>1004</ele>
      </trkpt>
      <trkpt lat="42.873263983055949" lon="-0.884005967527628">
        <ele>1005</ele>
      </trkpt>
      <trkpt lat="42.873311005532742" lon="-0.883962968364358">
        <ele>1005</ele>
      </trkpt>
      <trkpt lat="42.873489037156105" lon="-0.883742021396756">
        <ele>1005</ele>
      </trkpt>
      <trkpt lat="42.87360998801887" lon="-0.883635990321636">
        <ele>1005</ele>
      </trkpt>
      <trkpt lat="42.873806040734053" lon="-0.883618975058198">
        <ele>1004</ele>
      </trkpt>
      <trkpt lat="42.873983988538384" lon="-0.883529959246516">
        <ele>1004</ele>
      </trkpt>
      <trkpt lat="42.874068981036544" lon="-0.883505987003446">
        <ele>1004</ele>
      </trkpt>
      <trkpt lat="42.874271990731359" lon="-0.883511016145349">
        <ele>1003</ele>
      </trkpt>
      <trkpt lat="42.874308032914996" lon="-0.883509004488587">
        <ele>1003</ele>
      </trkpt>
      <trkpt lat="42.874483969062567" lon="-0.883487965911627">
        <ele>1003</ele>
      </trkpt>
      <trkpt lat="42.874669963493943" lon="-0.883453013375402">
        <ele>1003</ele>
      </trkpt>
      <trkpt lat="42.874718997627497" lon="-0.88344999589026">
        <ele>1003</ele>
      </trkpt>
      <trkpt lat="42.874745987355709" lon="-0.883437003940344">
        <ele>1003</ele>
      </trkpt>
      <trkpt lat="42.874855035915971" lon="-0.883376989513636">
        <ele>1003</ele>
      </trkpt>
      <trkpt lat="42.874966012313962" lon="-0.883221002295613">
        <ele>1003</ele>
      </trkpt>
      <trkpt lat="42.875058967620134" lon="-0.883132992312312">
        <ele>1003</ele>
      </trkpt>
      <trkpt lat="42.875100960955024" lon="-0.88310700841248">
        <ele>1003</ele>
      </trkpt>
      <trkpt lat="42.875175978988409" lon="-0.88300097733736">
        <ele>1003</ele>
      </trkpt>
      <trkpt lat="42.875174973160028" lon="-0.88299997150898">
        <ele>1003</ele>
      </trkpt>
      <trkpt lat="42.875172039493918" lon="-0.88300097733736">
        <ele>1003</ele>
      </trkpt>
      <trkpt lat="42.875186959281564" lon="-0.882989997044206">
        <ele>1003</ele>
      </trkpt>
      <trkpt lat="42.87526398897171" lon="-0.882869968190789">
        <ele>1003</ele>
      </trkpt>
      <trkpt lat="42.875287961214781" lon="-0.882831998169422">
        <ele>1003</ele>
      </trkpt>
      <trkpt lat="42.87536901421845" lon="-0.88265597820282">
        <ele>1003</ele>
      </trkpt>
      <trkpt lat="42.875373037531972" lon="-0.882644997909665">
        <ele>1003</ele>
      </trkpt>
      <trkpt lat="42.875401033088565" lon="-0.882539972662926">
        <ele>1003</ele>
      </trkpt>
      <trkpt lat="42.875420982018113" lon="-0.882493034005165">
        <ele>1003</ele>
      </trkpt>
      <trkpt lat="42.875501029193401" lon="-0.882235039025545">
        <ele>1003</ele>
      </trkpt>
      <trkpt lat="42.875579986721277" lon="-0.882021971046925">
        <ele>1003</ele>
      </trkpt>
      <trkpt lat="42.875622985884547" lon="-0.881878975778818">
        <ele>1003</ele>
      </trkpt>
      <trkpt lat="42.875708984211087" lon="-0.881627015769482">
        <ele>1003</ele>
      </trkpt>
      <trkpt lat="42.875786013901234" lon="-0.881349993869662">
        <ele>1003</ele>
      </trkpt>
      <trkpt lat="42.875818032771349" lon="-0.881113037467003">
        <ele>1003</ele>
      </trkpt>
      <trkpt lat="42.875819960609078" lon="-0.881059980019927">
        <ele>1003</ele>
      </trkpt>
      <trkpt lat="42.875819960609078" lon="-0.881059980019927">
        <ele>1003</ele>
      </trkpt>
      <trkpt lat="42.875818032771349" lon="-0.881047993898392">
        <ele>1005</ele>
      </trkpt>
      <trkpt lat="42.875817026942968" lon="-0.880992002785206">
        <ele>1005</ele>
      </trkpt>
      <trkpt lat="42.875789031386375" lon="-0.880859987810254">
        <ele>1005</ele>
      </trkpt>
      <trkpt lat="42.875776961445808" lon="-0.880745993927121">
        <ele>1005</ele>
      </trkpt>
      <trkpt lat="42.875765981152654" lon="-0.880647003650665">
        <ele>1005</ele>
      </trkpt>
      <trkpt lat="42.875766986981034" lon="-0.880493028089404">
        <ele>1005</ele>
      </trkpt>
      <trkpt lat="42.875762963667512" lon="-0.880457991734147">
        <ele>1005</ele>
      </trkpt>
      <trkpt lat="42.875774027779698" lon="-0.880379034206271">
        <ele>1004</ele>
      </trkpt>
      <trkpt lat="42.875772016122937" lon="-0.880306027829647">
        <ele>1004</ele>
      </trkpt>
      <trkpt lat="42.875780984759331" lon="-0.880220029503107">
        <ele>1004</ele>
      </trkpt>
      <trkpt lat="42.875793976709247" lon="-0.880025988444686">
        <ele>1004</ele>
      </trkpt>
      <trkpt lat="42.87581903859973" lon="-0.879944013431668">
        <ele>1004</ele>
      </trkpt>
      <trkpt lat="42.875852985307574" lon="-0.879696998745203">
        <ele>1004</ele>
      </trkpt>
      <trkpt lat="42.875863965600729" lon="-0.879656011238694">
        <ele>1004</ele>
      </trkpt>
      <trkpt lat="42.875911993905902" lon="-0.879498012363911">
        <ele>1004</ele>
      </trkpt>
      <trkpt lat="42.875959016382694" lon="-0.879293996840715">
        <ele>1004</ele>
      </trkpt>
      <trkpt lat="42.875996986404061" lon="-0.879229037091136">
        <ele>1004</ele>
      </trkpt>
      <trkpt lat="42.87603403441608" lon="-0.879096016287804">
        <ele>1005</ele>
      </trkpt>
      <trkpt lat="42.876063035801053" lon="-0.879028039053082">
        <ele>1006</ele>
      </trkpt>
      <trkpt lat="42.876148028299212" lon="-0.878820000216365">
        <ele>1006</ele>
      </trkpt>
      <trkpt lat="42.876148028299212" lon="-0.878785969689488">
        <ele>1006</ele>
      </trkpt>
      <trkpt lat="42.876235032454133" lon="-0.878564016893506">
        <ele>1007</ele>
      </trkpt>
      <trkpt lat="42.876322958618402" lon="-0.878297975286841">
        <ele>1008</ele>
      </trkpt>
      <trkpt lat="42.876247018575668" lon="-0.877849040552974">
        <ele>1008</ele>
      </trkpt>
      <trkpt lat="42.876247018575668" lon="-0.877738986164331">
        <ele>1006</ele>
      </trkpt>
      <trkpt lat="42.876251041889191" lon="-0.87773404084146">
        <ele>1006</ele>
      </trkpt>
      <trkpt lat="42.876251041889191" lon="-0.87773404084146">
        <ele>1006</ele>
      </trkpt>
      <trkpt lat="42.876256993040442" lon="-0.877668997272849">
        <ele>1006</ele>
      </trkpt>
      <trkpt lat="42.876376016065478" lon="-0.877555003389716">
        <ele>1007</ele>
      </trkpt>
      <trkpt lat="42.876408034935594" lon="-0.877527007833123">
        <ele>1007</ele>
      </trkpt>
      <trkpt lat="42.87642203271389" lon="-0.877491971477866">
        <ele>1008</ele>
      </trkpt>
      <trkpt lat="42.876498978585005" lon="-0.877319974824786">
        <ele>1008</ele>
      </trkpt>
      <trkpt lat="42.876550024375319" lon="-0.877178991213441">
        <ele>1008</ele>
      </trkpt>
      <trkpt lat="42.876549018546939" lon="-0.877032978460193">
        <ele>1009</ele>
      </trkpt>
      <trkpt lat="42.876489004120231" lon="-0.876837009564042">
        <ele>1009</ele>
      </trkpt>
      <trkpt lat="42.876440975815058" lon="-0.876616984605789">
        <ele>1009</ele>
      </trkpt>
      <trkpt lat="42.876367969438434" lon="-0.876416992396116">
        <ele>1009</ele>
      </trkpt>
      <trkpt lat="42.876355983316898" lon="-0.87638002820313">
        <ele>1009</ele>
      </trkpt>
      <trkpt lat="42.876332011073828" lon="-0.87631800211966">
        <ele>1009</ele>
      </trkpt>
      <trkpt lat="42.876333016902208" lon="-0.876311967149377">
        <ele>1009</ele>
      </trkpt>
      <trkpt lat="42.876297980546951" lon="-0.876205014064908">
        <ele>1010</ele>
      </trkpt>
      <trkpt lat="42.876225979998708" lon="-0.876061012968421">
        <ele>1010</ele>
      </trkpt>
      <trkpt lat="42.876145010814071" lon="-0.876008039340377">
        <ele>1011</ele>
      </trkpt>
      <trkpt lat="42.876135036349297" lon="-0.876024970784783">
        <ele>1011</ele>
      </trkpt>
      <trkpt lat="42.876011990010738" lon="-0.875733029097319">
        <ele>1014</ele>
      </trkpt>
      <trkpt lat="42.876006960868835" lon="-0.875444021075964">
        <ele>1015</ele>
      </trkpt>
      <trkpt lat="42.876004027202725" lon="-0.875320974737406">
        <ele>1015</ele>
      </trkpt>
      <trkpt lat="42.876011990010738" lon="-0.875131962820888">
        <ele>1016</ele>
      </trkpt>
      <trkpt lat="42.876069992780685" lon="-0.874880002811551">
        <ele>1016</ele>
      </trkpt>
      <trkpt lat="42.876069992780685" lon="-0.874862987548113">
        <ele>1016</ele>
      </trkpt>
      <trkpt lat="42.87607703357935" lon="-0.874629970639944">
        <ele>1017</ele>
      </trkpt>
      <trkpt lat="42.876087008044124" lon="-0.87451103143394">
        <ele>1017</ele>
      </trkpt>
      <trkpt lat="42.876153979450464" lon="-0.874379016458988">
        <ele>1018</ele>
      </trkpt>
      <trkpt lat="42.87616303190589" lon="-0.874308021739125">
        <ele>1018</ele>
      </trkpt>
      <trkpt lat="42.876158002763987" lon="-0.874139964580536">
        <ele>1018</ele>
      </trkpt>
      <trkpt lat="42.876151967793703" lon="-0.874070981517434">
        <ele>1018</ele>
      </trkpt>
      <trkpt lat="42.876179041340947" lon="-0.873837964609265">
        <ele>1018</ele>
      </trkpt>
      <trkpt lat="42.876152973622084" lon="-0.873677032068372">
        <ele>1018</ele>
      </trkpt>
      <trkpt lat="42.87612003274262" lon="-0.873520039021969">
        <ele>1018</ele>
      </trkpt>
      <trkpt lat="42.876110980287194" lon="-0.873512998223305">
        <ele>1018</ele>
      </trkpt>
      <trkpt lat="42.876069992780685" lon="-0.873451977968216">
        <ele>1018</ele>
      </trkpt>
      <trkpt lat="42.876019030809402" lon="-0.873366985470057">
        <ele>1020</ele>
      </trkpt>
      <trkpt lat="42.875945018604398" lon="-0.873259026557207">
        <ele>1021</ele>
      </trkpt>
      <trkpt lat="42.875924985855818" lon="-0.873183002695441">
        <ele>1022</ele>
      </trkpt>
      <trkpt lat="42.875921968370676" lon="-0.873133968561888">
        <ele>1023</ele>
      </trkpt>
      <trkpt lat="42.875861031934619" lon="-0.872872034087777">
        <ele>1024</ele>
      </trkpt>
      <trkpt lat="42.875853991135955" lon="-0.872741024941206">
        <ele>1024</ele>
      </trkpt>
      <trkpt lat="42.875845022499561" lon="-0.87262099608779">
        <ele>1024</ele>
      </trkpt>
      <trkpt lat="42.8758430108428" lon="-0.872565004974604">
        <ele>1024</ele>
      </trkpt>
      <trkpt lat="42.875868994742632" lon="-0.87238596752286">
        <ele>1024</ele>
      </trkpt>
      <trkpt lat="42.875832030549645" lon="-0.872153034433723">
        <ele>1025</ele>
      </trkpt>
      <trkpt lat="42.875803029164672" lon="-0.8720419742167">
        <ele>1025</ele>
      </trkpt>
      <trkpt lat="42.8758430108428" lon="-0.8718900103122">
        <ele>1026</ele>
      </trkpt>
      <trkpt lat="42.875815015286207" lon="-0.871594967320561">
        <ele>1026</ele>
      </trkpt>
      <trkpt lat="42.875814009457827" lon="-0.871448032557964">
        <ele>1026</ele>
      </trkpt>
      <trkpt lat="42.875824989750981" lon="-0.871325992047787">
        <ele>1026</ele>
      </trkpt>
      <trkpt lat="42.875824989750981" lon="-0.871213003993034">
        <ele>1026</ele>
      </trkpt>
      <trkpt lat="42.875792970880866" lon="-0.871108984574676">
        <ele>1026</ele>
      </trkpt>
      <trkpt lat="42.875773021951318" lon="-0.870921984314919">
        <ele>1027</ele>
      </trkpt>
      <trkpt lat="42.875770004466176" lon="-0.870907986536622">
        <ele>1027</ele>
      </trkpt>
      <trkpt lat="42.875819960609078" lon="-0.870755016803741">
        <ele>1027</ele>
      </trkpt>
      <trkpt lat="42.875827001407743" lon="-0.870440024882555">
        <ele>1027</ele>
      </trkpt>
      <trkpt lat="42.87582197226584" lon="-0.870410017669201">
        <ele>1027</ele>
      </trkpt>
      <trkpt lat="42.875790959224105" lon="-0.870343968272209">
        <ele>1027</ele>
      </trkpt>
      <trkpt lat="42.875793976709247" lon="-0.870078010484576">
        <ele>1027</ele>
      </trkpt>
      <trkpt lat="42.875762041658163" lon="-0.86991598829627">
        <ele>1027</ele>
      </trkpt>
      <trkpt lat="42.875758018344641" lon="-0.869761006906629">
        <ele>1028</ele>
      </trkpt>
      <trkpt lat="42.875760030001402" lon="-0.869736028835177">
        <ele>1028</ele>
      </trkpt>
      <trkpt lat="42.875782996416092" lon="-0.869498988613486">
        <ele>1029</ele>
      </trkpt>
      <trkpt lat="42.875768998637795" lon="-0.869401004165411">
        <ele>1030</ele>
      </trkpt>
      <trkpt lat="42.875764975324273" lon="-0.869193971157074">
        <ele>1030</ele>
      </trkpt>
      <trkpt lat="42.875761035829782" lon="-0.86912197060883">
        <ele>1031</ele>
      </trkpt>
      <trkpt lat="42.87571300752461" lon="-0.868889037519693">
        <ele>1031</ele>
      </trkpt>
      <trkpt lat="42.875686017796397" lon="-0.868786023929715">
        <ele>1032</ele>
      </trkpt>
      <trkpt lat="42.875653998926282" lon="-0.868693990632892">
        <ele>1032</ele>
      </trkpt>
      <trkpt lat="42.875624997541308" lon="-0.868571028113365">
        <ele>1032</ele>
      </trkpt>
      <trkpt lat="42.875615023076534" lon="-0.868510007858276">
        <ele>1032</ele>
      </trkpt>
      <trkpt lat="42.875601025298238" lon="-0.868242038413882">
        <ele>1032</ele>
      </trkpt>
      <trkpt lat="42.875638995319605" lon="-0.867994017899036">
        <ele>1032</ele>
      </trkpt>
      <trkpt lat="42.875708984211087" lon="-0.867724036797881">
        <ele>1031</ele>
      </trkpt>
      <trkpt lat="42.875730022788048" lon="-0.867630997672677">
        <ele>1031</ele>
      </trkpt>
      <trkpt lat="42.875734968110919" lon="-0.867387000471354">
        <ele>1031</ele>
      </trkpt>
      <trkpt lat="42.875737985596061" lon="-0.867270994931459">
        <ele>1031</ele>
      </trkpt>
      <trkpt lat="42.875761035829782" lon="-0.867204023525119">
        <ele>1031</ele>
      </trkpt>
      <trkpt lat="42.875777967274189" lon="-0.867135962471366">
        <ele>1031</ele>
      </trkpt>
      <trkpt lat="42.875788025557995" lon="-0.867092041298747">
        <ele>1031</ele>
      </trkpt>
      <trkpt lat="42.875760030001402" lon="-0.866944016888738">
        <ele>1032</ele>
      </trkpt>
      <trkpt lat="42.875764975324273" lon="-0.866847038269043">
        <ele>1032</ele>
      </trkpt>
      <trkpt lat="42.875774027779698" lon="-0.86669297888875">
        <ele>1033</ele>
      </trkpt>
      <trkpt lat="42.875789031386375" lon="-0.866505978628993">
        <ele>1034</ele>
      </trkpt>
      <trkpt lat="42.875804034993052" lon="-0.866320990025997">
        <ele>1035</ele>
      </trkpt>
      <trkpt lat="42.875801017507911" lon="-0.866227028891444">
        <ele>1036</ele>
      </trkpt>
      <trkpt lat="42.875790959224105" lon="-0.866182018071413">
        <ele>1036</ele>
      </trkpt>
      <trkpt lat="42.875790959224105" lon="-0.866182018071413">
        <ele>1036</ele>
      </trkpt>
      <trkpt lat="42.875801017507911" lon="-0.866148993372917">
        <ele>1036</ele>
      </trkpt>
      <trkpt lat="42.875818032771349" lon="-0.865883035585284">
        <ele>1036</ele>
      </trkpt>
      <trkpt lat="42.875804034993052" lon="-0.865764012560248">
        <ele>1037</ele>
      </trkpt>
      <trkpt lat="42.875804034993052" lon="-0.865639038383961">
        <ele>1037</ele>
      </trkpt>
      <trkpt lat="42.875840999186039" lon="-0.865467041730881">
        <ele>1037</ele>
      </trkpt>
      <trkpt lat="42.875845022499561" lon="-0.865452960133553">
        <ele>1037</ele>
      </trkpt>
      <trkpt lat="42.875859020277858" lon="-0.865358998999">
        <ele>1038</ele>
      </trkpt>
      <trkpt lat="42.875839993357658" lon="-0.865285992622375">
        <ele>1039</ele>
      </trkpt>
      <trkpt lat="42.87582297809422" lon="-0.865221032872796">
        <ele>1038</ele>
      </trkpt>
      <trkpt lat="42.875793976709247" lon="-0.865054987370968">
        <ele>1040</ele>
      </trkpt>
      <trkpt lat="42.875721976161003" lon="-0.864857006818056">
        <ele>1041</ele>
      </trkpt>
      <trkpt lat="42.875718958675861" lon="-0.86484300903976">
        <ele>1041</ele>
      </trkpt>
      <trkpt lat="42.875737985596061" lon="-0.864573027938604">
        <ele>1041</ele>
      </trkpt>
      <trkpt lat="42.875694986432791" lon="-0.864373035728931">
        <ele>1041</ele>
      </trkpt>
      <trkpt lat="42.875677971169353" lon="-0.864313021302223">
        <ele>1041</ele>
      </trkpt>
      <trkpt lat="42.875626003369689" lon="-0.864051003009081">
        <ele>1041</ele>
      </trkpt>
      <trkpt lat="42.875591972842813" lon="-0.863910019397736">
        <ele>1042</ele>
      </trkpt>
      <trkpt lat="42.875551991164684" lon="-0.863693011924624">
        <ele>1042</ele>
      </trkpt>
      <trkpt lat="42.875546040013433" lon="-0.863548004999757">
        <ele>1042</ele>
      </trkpt>
      <trkpt lat="42.875540005043149" lon="-0.863359998911619">
        <ele>1042</ele>
      </trkpt>
      <trkpt lat="42.87554201669991" lon="-0.863145003095269">
        <ele>1042</ele>
      </trkpt>
      <trkpt lat="42.875557020306587" lon="-0.862924978137016">
        <ele>1040</ele>
      </trkpt>
      <trkpt lat="42.875569006428123" lon="-0.862897988408804">
        <ele>1040</ele>
      </trkpt>
      <trkpt lat="42.875589961186051" lon="-0.862761028110981">
        <ele>1040</ele>
      </trkpt>
      <trkpt lat="42.875588033348322" lon="-0.862605040892959">
        <ele>1042</ele>
      </trkpt>
      <trkpt lat="42.875546040013433" lon="-0.862431032583117">
        <ele>1044</ele>
      </trkpt>
      <trkpt lat="42.875534975901246" lon="-0.862211007624865">
        <ele>1046</ele>
      </trkpt>
      <trkpt lat="42.87554101087153" lon="-0.862173959612846">
        <ele>1046</ele>
      </trkpt>
      <trkpt lat="42.875588033348322" lon="-0.86213800124824">
        <ele>1047</ele>
      </trkpt>
      <trkpt lat="42.875601025298238" lon="-0.862057032063603">
        <ele>1048</ele>
      </trkpt>
      <trkpt lat="42.875560037791729" lon="-0.861914958804846">
        <ele>1050</ele>
      </trkpt>
      <trkpt lat="42.87549801170826" lon="-0.861783027648926">
        <ele>1053</ele>
      </trkpt>
      <trkpt lat="42.875451995059848" lon="-0.861629974097013">
        <ele>1055</ele>
      </trkpt>
      <trkpt lat="42.875458030030131" lon="-0.861544981598854">
        <ele>1055</ele>
      </trkpt>
      <trkpt lat="42.875461969524622" lon="-0.861493013799191">
        <ele>1055</ele>
      </trkpt>
      <trkpt lat="42.875420982018113" lon="-0.861296039074659">
        <ele>1056</ele>
      </trkpt>
      <trkpt lat="42.875406984239817" lon="-0.861134016886353">
        <ele>1056</ele>
      </trkpt>
      <trkpt lat="42.875403966754675" lon="-0.860908962786198">
        <ele>1057</ele>
      </trkpt>
      <trkpt lat="42.875379994511604" lon="-0.860758004710078">
        <ele>1057</ele>
      </trkpt>
      <trkpt lat="42.875347975641489" lon="-0.860563041642308">
        <ele>1058</ele>
      </trkpt>
      <trkpt lat="42.87539298646152" lon="-0.860345028340817">
        <ele>1059</ele>
      </trkpt>
      <trkpt lat="42.875386029481888" lon="-0.860293982550502">
        <ele>1059</ele>
      </trkpt>
      <trkpt lat="42.87539298646152" lon="-0.860238997265697">
        <ele>1059</ele>
      </trkpt>
      <trkpt lat="42.87537002004683" lon="-0.860098013654351">
        <ele>1060</ele>
      </trkpt>
      <trkpt lat="42.875345963984728" lon="-0.859913025051355">
        <ele>1061</ele>
      </trkpt>
      <trkpt lat="42.875322997570038" lon="-0.859686965122819">
        <ele>1061</ele>
      </trkpt>
      <trkpt lat="42.875297013670206" lon="-0.85949300788343">
        <ele>1062</ele>
      </trkpt>
      <trkpt lat="42.875288967043161" lon="-0.859479010105133">
        <ele>1062</ele>
      </trkpt>
      <trkpt lat="42.875273963436484" lon="-0.85947297513485">
        <ele>1062</ele>
      </trkpt>
      <trkpt lat="42.875231970101595" lon="-0.859308019280434">
        <ele>1063</ele>
      </trkpt>
      <trkpt lat="42.875234987586737" lon="-0.859238030388951">
        <ele>1063</ele>
      </trkpt>
      <trkpt lat="42.875206992030144" lon="-0.859096962958574">
        <ele>1062</ele>
      </trkpt>
      <trkpt lat="42.875204980373383" lon="-0.859066033735871">
        <ele>1062</ele>
      </trkpt>
      <trkpt lat="42.875216966494918" lon="-0.859039966017008">
        <ele>1061</ele>
      </trkpt>
      <trkpt lat="42.875216966494918" lon="-0.859039966017008">
        <ele>1060</ele>
      </trkpt>
      <trkpt lat="42.875270023941994" lon="-0.858822958543897">
        <ele>1060</ele>
      </trkpt>
      <trkpt lat="42.87528301589191" lon="-0.858771996572614">
        <ele>1060</ele>
      </trkpt>
      <trkpt lat="42.875344958156347" lon="-0.858447030186653">
        <ele>1059</ele>
      </trkpt>
      <trkpt lat="42.875375971198082" lon="-0.858059031888843">
        <ele>1059</ele>
      </trkpt>
      <trkpt lat="42.875287039205432" lon="-0.857879994437099">
        <ele>1059</ele>
      </trkpt>
      <trkpt lat="42.875253008678555" lon="-0.857816962525249">
        <ele>1059</ele>
      </trkpt>
      <trkpt lat="42.875206992030144" lon="-0.857701962813735">
        <ele>1059</ele>
      </trkpt>
      <trkpt lat="42.875117976218462" lon="-0.857557961717248">
        <ele>1059</ele>
      </trkpt>
      <trkpt lat="42.875062990933657" lon="-0.857436005026102">
        <ele>1059</ele>
      </trkpt>
      <trkpt lat="42.875030972063541" lon="-0.857370961457491">
        <ele>1059</ele>
      </trkpt>
      <trkpt lat="42.874972969293594" lon="-0.857243975624442">
        <ele>1059</ele>
      </trkpt>
      <trkpt lat="42.874915972352028" lon="-0.857107015326619">
        <ele>1059</ele>
      </trkpt>
      <trkpt lat="42.874858975410461" lon="-0.856949016451836">
        <ele>1059</ele>
      </trkpt>
      <trkpt lat="42.874784963205457" lon="-0.856814989820123">
        <ele>1059</ele>
      </trkpt>
      <trkpt lat="42.874753028154373" lon="-0.856671994552016">
        <ele>1059</ele>
      </trkpt>
      <trkpt lat="42.874721009284258" lon="-0.856499997898936">
        <ele>1058</ele>
      </trkpt>
      <trkpt lat="42.874680021777749" lon="-0.856234040111303">
        <ele>1058</ele>
      </trkpt>
      <trkpt lat="42.874673986807466" lon="-0.856200009584427">
        <ele>1058</ele>
      </trkpt>
      <trkpt lat="42.874629981815815" lon="-0.856053996831179">
        <ele>1058</ele>
      </trkpt>
      <trkpt lat="42.874591005966067" lon="-0.855955006554723">
        <ele>1058</ele>
      </trkpt>
      <trkpt lat="42.87459603510797" lon="-0.855877976864576">
        <ele>1058</ele>
      </trkpt>
      <trkpt lat="42.874592011794448" lon="-0.855704974383116">
        <ele>1059</ele>
      </trkpt>
      <trkpt lat="42.874606009572744" lon="-0.855473969131708">
        <ele>1059</ele>
      </trkpt>
      <trkpt lat="42.874603997915983" lon="-0.855444967746735">
        <ele>1059</ele>
      </trkpt>
      <trkpt lat="42.874616989865899" lon="-0.855276994407177">
        <ele>1058</ele>
      </trkpt>
      <trkpt lat="42.874622019007802" lon="-0.855210023000836">
        <ele>1058</ele>
      </trkpt>
      <trkpt lat="42.87463802844286" lon="-0.855014976114035">
        <ele>1057</ele>
      </trkpt>
      <trkpt lat="42.87461900152266" lon="-0.854814983904362">
        <ele>1057</ele>
      </trkpt>
      <trkpt lat="42.87459603510797" lon="-0.854712976142764">
        <ele>1057</ele>
      </trkpt>
      <trkpt lat="42.874579019844532" lon="-0.854625971987844">
        <ele>1057</ele>
      </trkpt>
      <trkpt lat="42.874564016237855" lon="-0.854457998648286">
        <ele>1057</ele>
      </trkpt>
      <trkpt lat="42.874579019844532" lon="-0.854407036677003">
        <ele>1057</ele>
      </trkpt>
      <trkpt lat="42.87455596961081" lon="-0.854225987568498">
        <ele>1057</ele>
      </trkpt>
      <trkpt lat="42.874539038166404" lon="-0.854052985087037">
        <ele>1057</ele>
      </trkpt>
      <trkpt lat="42.874481035396457" lon="-0.853856010362506">
        <ele>1057</ele>
      </trkpt>
      <trkpt lat="42.874478017911315" lon="-0.853836983442307">
        <ele>1057</ele>
      </trkpt>
      <trkpt lat="42.874480029568076" lon="-0.853758025914431">
        <ele>1058</ele>
      </trkpt>
      <trkpt lat="42.874454967677593" lon="-0.853548981249332">
        <ele>1058</ele>
      </trkpt>
      <trkpt lat="42.874430995434523" lon="-0.853286040946841">
        <ele>1058</ele>
      </trkpt>
      <trkpt lat="42.874421020969748" lon="-0.853051012381911">
        <ele>1058</ele>
      </trkpt>
      <trkpt lat="42.874426972121" lon="-0.852817995473742">
        <ele>1059</ele>
      </trkpt>
      <trkpt lat="42.874400988221169" lon="-0.852649016305804">
        <ele>1059</ele>
      </trkpt>
      <trkpt lat="42.874376010149717" lon="-0.852440977469087">
        <ele>1060</ele>
      </trkpt>
      <trkpt lat="42.874249024316669" lon="-0.852332012727857">
        <ele>1061</ele>
      </trkpt>
      <trkpt lat="42.874159002676606" lon="-0.852178037166595">
        <ele>1061</ele>
      </trkpt>
      <trkpt lat="42.874150034040213" lon="-0.852170996367931">
        <ele>1061</ele>
      </trkpt>
      <trkpt lat="42.874070992693305" lon="-0.852055996656418">
        <ele>1061</ele>
      </trkpt>
      <trkpt lat="42.874027993530035" lon="-0.851963041350245">
        <ele>1062</ele>
      </trkpt>
      <trkpt lat="42.874018019065261" lon="-0.851942002773285">
        <ele>1062</ele>
      </trkpt>
      <trkpt lat="42.873991029337049" lon="-0.851922975853086">
        <ele>1062</ele>
      </trkpt>
      <trkpt lat="42.873941995203495" lon="-0.851843012496829">
        <ele>1062</ele>
      </trkpt>
      <trkpt lat="42.873860020190477" lon="-0.851707980036736">
        <ele>1062</ele>
      </trkpt>
      <trkpt lat="42.873808974400163" lon="-0.851645031943917">
        <ele>1062</ele>
      </trkpt>
      <trkpt lat="42.873724987730384" lon="-0.851476974785328">
        <ele>1062</ele>
      </trkpt>
      <trkpt lat="42.873696992173791" lon="-0.851349988952279">
        <ele>1061</ele>
      </trkpt>
      <trkpt lat="42.873641001060605" lon="-0.851214034482837">
        <ele>1061</ele>
      </trkpt>
      <trkpt lat="42.873618034645915" lon="-0.85113599896431">
        <ele>1061</ele>
      </trkpt>
      <trkpt lat="42.873558020219207" lon="-0.850927038118243">
        <ele>1061</ele>
      </trkpt>
      <trkpt lat="42.873455006629229" lon="-0.850732997059822">
        <ele>1060</ele>
      </trkpt>
      <trkpt lat="42.873433968052268" lon="-0.850708018988371">
        <ele>1060</ele>
      </trkpt>
      <trkpt lat="42.873359033837914" lon="-0.85049201734364">
        <ele>1060</ele>
      </trkpt>
      <trkpt lat="42.873355010524392" lon="-0.850451029837132">
        <ele>1060</ele>
      </trkpt>
      <trkpt lat="42.873421981930733" lon="-0.850229999050498">
        <ele>1061</ele>
      </trkpt>
      <trkpt lat="42.87345802411437" lon="-0.849986001849175">
        <ele>1061</ele>
      </trkpt>
      <trkpt lat="42.873462969437242" lon="-0.849924981594086">
        <ele>1061</ele>
      </trkpt>
      <trkpt lat="42.873443020507693" lon="-0.849681990221143">
        <ele>1061</ele>
      </trkpt>
      <trkpt lat="42.873422987759113" lon="-0.849523991346359">
        <ele>1061</ele>
      </trkpt>
      <trkpt lat="42.873397003859282" lon="-0.849423995241523">
        <ele>1061</ele>
      </trkpt>
      <trkpt lat="42.873348975554109" lon="-0.84928804077208">
        <ele>1062</ele>
      </trkpt>
      <trkpt lat="42.873271023854613" lon="-0.849077990278602">
        <ele>1063</ele>
      </trkpt>
      <trkpt lat="42.873232970014215" lon="-0.848995009437203">
        <ele>1064</ele>
      </trkpt>
      <trkpt lat="42.873224001377821" lon="-0.848756041377783">
        <ele>1064</ele>
      </trkpt>
      <trkpt lat="42.873234981670976" lon="-0.848519001156092">
        <ele>1064</ele>
      </trkpt>
      <trkpt lat="42.873247973620892" lon="-0.848445994779468">
        <ele>1064</ele>
      </trkpt>
      <trkpt lat="42.873217966407537" lon="-0.848320014774799">
        <ele>1065</ele>
      </trkpt>
      <trkpt lat="42.873191982507706" lon="-0.848223036155105">
        <ele>1065</ele>
      </trkpt>
      <trkpt lat="42.873175973072648" lon="-0.848092027008533">
        <ele>1065</ele>
      </trkpt>
      <trkpt lat="42.873172033578157" lon="-0.848059002310038">
        <ele>1065</ele>
      </trkpt>
      <trkpt lat="42.873160969465971" lon="-0.848019020631909">
        <ele>1065</ele>
      </trkpt>
      <trkpt lat="42.873081006109715" lon="-0.847944002598524">
        <ele>1065</ele>
      </trkpt>
      <trkpt lat="42.873033983632922" lon="-0.8478709962219">
        <ele>1065</ele>
      </trkpt>
      <trkpt lat="42.872918983921409" lon="-0.847778962925076">
        <ele>1066</ele>
      </trkpt>
      <trkpt lat="42.87290196865797" lon="-0.847763959318399">
        <ele>1067</ele>
      </trkpt>
      <trkpt lat="42.872919989749789" lon="-0.847709979861975">
        <ele>1067</ele>
      </trkpt>
      <trkpt lat="42.872909009456635" lon="-0.847668992355466">
        <ele>1067</ele>
      </trkpt>
      <trkpt lat="42.872890988364816" lon="-0.847623981535435">
        <ele>1067</ele>
      </trkpt>
      <trkpt lat="42.872865004464984" lon="-0.847557010129094">
        <ele>1067</ele>
      </trkpt>
      <trkpt lat="42.872833991423249" lon="-0.84741803817451">
        <ele>1068</ele>
      </trkpt>
      <trkpt lat="42.872787974774837" lon="-0.847233971580863">
        <ele>1068</ele>
      </trkpt>
      <trkpt lat="42.872785041108727" lon="-0.847199019044638">
        <ele>1068</ele>
      </trkpt>
      <trkpt lat="42.872770959511399" lon="-0.846979999914765">
        <ele>1068</ele>
      </trkpt>
      <trkpt lat="42.872788980603218" lon="-0.846906993538141">
        <ele>1068</ele>
      </trkpt>
      <trkpt lat="42.872766014188528" lon="-0.846699038520455">
        <ele>1068</ele>
      </trkpt>
      <trkpt lat="42.872741958126426" lon="-0.846564006060362">
        <ele>1068</ele>
      </trkpt>
      <trkpt lat="42.872741958126426" lon="-0.846327971667051">
        <ele>1068</ele>
      </trkpt>
      <trkpt lat="42.872744975611567" lon="-0.846225041896105">
        <ele>1068</ele>
      </trkpt>
      <trkpt lat="42.872696025297046" lon="-0.846036029979587">
        <ele>1069</ele>
      </trkpt>
      <trkpt lat="42.87268303334713" lon="-0.845998981967568">
        <ele>1069</ele>
      </trkpt>
      <trkpt lat="42.872667023912072" lon="-0.845897980034351">
        <ele>1070</ele>
      </trkpt>
      <trkpt lat="42.872659983113408" lon="-0.845775017514825">
        <ele>1070</ele>
      </trkpt>
      <trkpt lat="42.872670963406563" lon="-0.845730006694794">
        <ele>1070</ele>
      </trkpt>
      <trkpt lat="42.872668029740453" lon="-0.845689019188285">
        <ele>1071</ele>
      </trkpt>
      <trkpt lat="42.872595023363829" lon="-0.845603020861745">
        <ele>1071</ele>
      </trkpt>
      <trkpt lat="42.872521011158824" lon="-0.845557004213333">
        <ele>1073</ele>
      </trkpt>
      <trkpt lat="42.872515982016921" lon="-0.845540994778275">
        <ele>1073</ele>
      </trkpt>
      <trkpt lat="42.872481029480696" lon="-0.845477040857077">
        <ele>1073</ele>
      </trkpt>
      <trkpt lat="42.872457979246974" lon="-0.845436975359917">
        <ele>1073</ele>
      </trkpt>
      <trkpt lat="42.872443981468678" lon="-0.845212005078793">
        <ele>1073</ele>
      </trkpt>
      <trkpt lat="42.872413974255323" lon="-0.845068003982306">
        <ele>1073</ele>
      </trkpt>
      <trkpt lat="42.872414980083704" lon="-0.84505501203239">
        <ele>1074</ele>
      </trkpt>
      <trkpt lat="42.872411962598562" lon="-0.845023998990655">
        <ele>1074</ele>
      </trkpt>
      <trkpt lat="42.872410034760833" lon="-0.845001032575965">
        <ele>1074</ele>
      </trkpt>
      <trkpt lat="42.872376004233956" lon="-0.844908999279141">
        <ele>1074</ele>
      </trkpt>
      <trkpt lat="42.87229897454381" lon="-0.844700038433075">
        <ele>1074</ele>
      </trkpt>
      <trkpt lat="42.872267961502075" lon="-0.844623008742929">
        <ele>1074</ele>
      </trkpt>
      <trkpt lat="42.872258992865682" lon="-0.844521000981331">
        <ele>1074</ele>
      </trkpt>
      <trkpt lat="42.8722770139575" lon="-0.844360990449786">
        <ele>1075</ele>
      </trkpt>
      <trkpt lat="42.872311966493726" lon="-0.844203997403383">
        <ele>1075</ele>
      </trkpt>
      <trkpt lat="42.872316995635629" lon="-0.844087991863489">
        <ele>1075</ele>
      </trkpt>
      <trkpt lat="42.872321018949151" lon="-0.844029989093542">
        <ele>1075</ele>
      </trkpt>
      <trkpt lat="42.872357983142138" lon="-0.843792026862502">
        <ele>1073</ele>
      </trkpt>
      <trkpt lat="42.872364018112421" lon="-0.843685995787382">
        <ele>1073</ele>
      </trkpt>
      <trkpt lat="42.872368041425943" lon="-0.843577031046152">
        <ele>1073</ele>
      </trkpt>
      <trkpt lat="42.872356977313757" lon="-0.84331601858139">
        <ele>1073</ele>
      </trkpt>
      <trkpt lat="42.872339962050319" lon="-0.843201018869877">
        <ele>1073</ele>
      </trkpt>
      <trkpt lat="42.872311966493726" lon="-0.843132035806775">
        <ele>1073</ele>
      </trkpt>
      <trkpt lat="42.872287994250655" lon="-0.843084007501602">
        <ele>1073</ele>
      </trkpt>
      <trkpt lat="42.872238038107753" lon="-0.842931037768722">
        <ele>1073</ele>
      </trkpt>
      <trkpt lat="42.872241977602243" lon="-0.842825006693602">
        <ele>1073</ele>
      </trkpt>
      <trkpt lat="42.872257987037301" lon="-0.842771027237177">
        <ele>1073</ele>
      </trkpt>
      <trkpt lat="42.872259998694062" lon="-0.842508003115654">
        <ele>1074</ele>
      </trkpt>
      <trkpt lat="42.872238038107753" lon="-0.842385962605476">
        <ele>1074</ele>
      </trkpt>
      <trkpt lat="42.872250024229288" lon="-0.84226300008595">
        <ele>1074</ele>
      </trkpt>
      <trkpt lat="42.872218005359173" lon="-0.842184964567423">
        <ele>1074</ele>
      </trkpt>
      <trkpt lat="42.872180035337806" lon="-0.842109024524689">
        <ele>1075</ele>
      </trkpt>
      <trkpt lat="42.872168971225619" lon="-0.841970974579453">
        <ele>1077</ele>
      </trkpt>
      <trkpt lat="42.872137958183885" lon="-0.841813981533051">
        <ele>1078</ele>
      </trkpt>
      <trkpt lat="42.872080039232969" lon="-0.841698981821537">
        <ele>1080</ele>
      </trkpt>
      <trkpt lat="42.872065035626292" lon="-0.841662017628551">
        <ele>1081</ele>
      </trkpt>
      <trkpt lat="42.87204198539257" lon="-0.841628992930055">
        <ele>1084</ele>
      </trkpt>
      <trkpt lat="42.87204198539257" lon="-0.841628992930055">
        <ele>1086</ele>
      </trkpt>
      <trkpt lat="42.87204198539257" lon="-0.841628992930055">
        <ele>1086</ele>
      </trkpt>
      <trkpt lat="42.872007032856345" lon="-0.841548023745418">
        <ele>1086</ele>
      </trkpt>
      <trkpt lat="42.871927991509438" lon="-0.841438975185156">
        <ele>1086</ele>
      </trkpt>
      <trkpt lat="42.871895972639322" lon="-0.841392958536744">
        <ele>1087</ele>
      </trkpt>
      <trkpt lat="42.871791031211615" lon="-0.841260021552444">
        <ele>1088</ele>
      </trkpt>
      <trkpt lat="42.871716013178229" lon="-0.841110991314054">
        <ele>1090</ele>
      </trkpt>
      <trkpt lat="42.871708972379565" lon="-0.841090036556125">
        <ele>1090</ele>
      </trkpt>
      <trkpt lat="42.87165398709476" lon="-0.84097302518785">
        <ele>1091</ele>
      </trkpt>
      <trkpt lat="42.871553990989923" lon="-0.840885015204549">
        <ele>1093</ele>
      </trkpt>
      <trkpt lat="42.871468998491764" lon="-0.840817959979177">
        <ele>1095</ele>
      </trkpt>
      <trkpt lat="42.871432034298778" lon="-0.840735984966159">
        <ele>1097</ele>
      </trkpt>
      <trkpt lat="42.871389035135508" lon="-0.840714024379849">
        <ele>1097</ele>
      </trkpt>
      <trkpt lat="42.871306976303458" lon="-0.840647974982858">
        <ele>1098</ele>
      </trkpt>
      <trkpt lat="42.871205974370241" lon="-0.840549990534782">
        <ele>1098</ele>
      </trkpt>
      <trkpt lat="42.871061973273754" lon="-0.840406995266676">
        <ele>1101</ele>
      </trkpt>
      <trkpt lat="42.870973041281104" lon="-0.840336000546813">
        <ele>1102</ele>
      </trkpt>
      <trkpt lat="42.870958959683776" lon="-0.840197028592229">
        <ele>1103</ele>
      </trkpt>
      <trkpt lat="42.870962982997298" lon="-0.840170960873365">
        <ele>1104</ele>
      </trkpt>
      <trkpt lat="42.870955020189285" lon="-0.84009300917387">
        <ele>1104</ele>
      </trkpt>
      <trkpt lat="42.870947979390621" lon="-0.839991001412272">
        <ele>1106</ele>
      </trkpt>
      <trkpt lat="42.870885031297803" lon="-0.839844988659024">
        <ele>1108</ele>
      </trkpt>
      <trkpt lat="42.870821999385953" lon="-0.839725965633988">
        <ele>1109</ele>
      </trkpt>
      <trkpt lat="42.870772965252399" lon="-0.839670980349183">
        <ele>1112</ele>
      </trkpt>
      <trkpt lat="42.870768019929528" lon="-0.839667962864041">
        <ele>1112</ele>
      </trkpt>
      <trkpt lat="42.870757039636374" lon="-0.839636027812958">
        <ele>1112</ele>
      </trkpt>
      <trkpt lat="42.870743963867426" lon="-0.839541982859373">
        <ele>1114</ele>
      </trkpt>
      <trkpt lat="42.870727032423019" lon="-0.839462019503117">
        <ele>1116</ele>
      </trkpt>
      <trkpt lat="42.870688978582621" lon="-0.839389013126493">
        <ele>1119</ele>
      </trkpt>
      <trkpt lat="42.870638016611338" lon="-0.839277030900121">
        <ele>1122</ele>
      </trkpt>
      <trkpt lat="42.870605997741222" lon="-0.839170999825001">
        <ele>1123</ele>
      </trkpt>
      <trkpt lat="42.870561992749572" lon="-0.839067986235023">
        <ele>1125</ele>
      </trkpt>
      <trkpt lat="42.870511030778289" lon="-0.83895399235189">
        <ele>1127</ele>
      </trkpt>
      <trkpt lat="42.870511030778289" lon="-0.83895399235189">
        <ele>1129</ele>
      </trkpt>
      <trkpt lat="42.870511030778289" lon="-0.83895399235189">
        <ele>1132</ele>
      </trkpt>
      <trkpt lat="42.870486974716187" lon="-0.838833963498473">
        <ele>1135</ele>
      </trkpt>
      <trkpt lat="42.870479011908174" lon="-0.838712006807327">
        <ele>1137</ele>
      </trkpt>
      <trkpt lat="42.870470965281129" lon="-0.838666995987296">
        <ele>1139</ele>
      </trkpt>
      <trkpt lat="42.870461996644735" lon="-0.838635982945561">
        <ele>1142</ele>
      </trkpt>
      <trkpt lat="42.870369041338563" lon="-0.838387040421367">
        <ele>1144</ele>
      </trkpt>
      <trkpt lat="42.870355965569615" lon="-0.83831001073122">
        <ele>1144</ele>
      </trkpt>
      <trkpt lat="42.870345991104841" lon="-0.838234992697835">
        <ele>1147</ele>
      </trkpt>
      <trkpt lat="42.870350014418364" lon="-0.83818000741303">
        <ele>1148</ele>
      </trkpt>
      <trkpt lat="42.870311038568616" lon="-0.838027037680149">
        <ele>1150</ele>
      </trkpt>
      <trkpt lat="42.870259992778301" lon="-0.837903991341591">
        <ele>1152</ele>
      </trkpt>
      <trkpt lat="42.870250018313527" lon="-0.837874989956617">
        <ele>1155</ele>
      </trkpt>
      <trkpt lat="42.870241971686482" lon="-0.837845988571644">
        <ele>1159</ele>
      </trkpt>
      <trkpt lat="42.870217999443412" lon="-0.837768036872149">
        <ele>1158</ele>
      </trkpt>
      <trkpt lat="42.870197966694832" lon="-0.83770802244544">
        <ele>1158</ele>
      </trkpt>
      <trkpt lat="42.870191009715199" lon="-0.837674997746944">
        <ele>1160</ele>
      </trkpt>
      <trkpt lat="42.870164019986987" lon="-0.83760199137032">
        <ele>1162</ele>
      </trkpt>
      <trkpt lat="42.870122026652098" lon="-0.837446004152298">
        <ele>1164</ele>
      </trkpt>
      <trkpt lat="42.870021024718881" lon="-0.837282976135612">
        <ele>1166</ele>
      </trkpt>
      <trkpt lat="42.869915999472141" lon="-0.837136963382363">
        <ele>1167</ele>
      </trkpt>
      <trkpt lat="42.869892027229071" lon="-0.836876034736633">
        <ele>1168</ele>
      </trkpt>
      <trkpt lat="42.869839975610375" lon="-0.836694985628128">
        <ele>1170</ele>
      </trkpt>
      <trkpt lat="42.869790019467473" lon="-0.836525000631809">
        <ele>1172</ele>
      </trkpt>
      <trkpt lat="42.869768980890512" lon="-0.836389968171716">
        <ele>1173</ele>
      </trkpt>
      <trkpt lat="42.869758000597358" lon="-0.836365995928645">
        <ele>1175</ele>
      </trkpt>
      <trkpt lat="42.869758000597358" lon="-0.836365995928645">
        <ele>1175</ele>
      </trkpt>
      <trkpt lat="42.869736040011048" lon="-0.836315033957362">
        <ele>1175</ele>
      </trkpt>
      <trkpt lat="42.869645012542605" lon="-0.83611898124218">
        <ele>1176</ele>
      </trkpt>
      <trkpt lat="42.869594972580671" lon="-0.836038012057543">
        <ele>1179</ele>
      </trkpt>
      <trkpt lat="42.869594972580671" lon="-0.836038012057543">
        <ele>1179</ele>
      </trkpt>
      <trkpt lat="42.869524983689189" lon="-0.835910020396113">
        <ele>1180</ele>
      </trkpt>
      <trkpt lat="42.869458012282848" lon="-0.835813963785768">
        <ele>1182</ele>
      </trkpt>
      <trkpt lat="42.86944099701941" lon="-0.835765013471246">
        <ele>1183</ele>
      </trkpt>
      <trkpt lat="42.86939799785614" lon="-0.835654037073255">
        <ele>1185</ele>
      </trkpt>
      <trkpt lat="42.86939799785614" lon="-0.835654037073255">
        <ele>1185</ele>
      </trkpt>
      <trkpt lat="42.869255002588034" lon="-0.835432000458241">
        <ele>1187</ele>
      </trkpt>
      <trkpt lat="42.869217032566667" lon="-0.835284981876612">
        <ele>1190</ele>
      </trkpt>
      <trkpt lat="42.869136985391378" lon="-0.835164031013846">
        <ele>1193</ele>
      </trkpt>
      <trkpt lat="42.869106978178024" lon="-0.835046013817191">
        <ele>1194</ele>
      </trkpt>
      <trkpt lat="42.869042018428445" lon="-0.834955992177129">
        <ele>1196</ele>
      </trkpt>
      <trkpt lat="42.86903003230691" lon="-0.834951968863606">
        <ele>1197</ele>
      </trkpt>
      <trkpt lat="42.869007987901568" lon="-0.8349350374192">
        <ele>1198</ele>
      </trkpt>
      <trkpt lat="42.868916038423777" lon="-0.834836969152093">
        <ele>1199</ele>
      </trkpt>
      <trkpt lat="42.868844037875533" lon="-0.834718029946089">
        <ele>1201</ele>
      </trkpt>
      <trkpt lat="42.868766002357006" lon="-0.834619039669633">
        <ele>1204</ele>
      </trkpt>
      <trkpt lat="42.868684027343988" lon="-0.834453999996185">
        <ele>1205</ele>
      </trkpt>
      <trkpt lat="42.86866701208055" lon="-0.834437990561128">
        <ele>1205</ele>
      </trkpt>
      <trkpt lat="42.868595011532307" lon="-0.834374958649278">
        <ele>1207</ele>
      </trkpt>
      <trkpt lat="42.868527034297585" lon="-0.834317961707711">
        <ele>1209</ele>
      </trkpt>
      <trkpt lat="42.868407005444169" lon="-0.834263982251287">
        <ele>1211</ele>
      </trkpt>
      <trkpt lat="42.868356965482235" lon="-0.834220983088017">
        <ele>1212</ele>
      </trkpt>
      <trkpt lat="42.868288988247514" lon="-0.834102965891361">
        <ele>1214</ele>
      </trkpt>
      <trkpt lat="42.868200978264213" lon="-0.833982015028596">
        <ele>1216</ele>
      </trkpt>
      <trkpt lat="42.868139035999775" lon="-0.833961982280016">
        <ele>1218</ele>
      </trkpt>
      <trkpt lat="42.868088996037841" lon="-0.833853017538786">
        <ele>1220</ele>
      </trkpt>
      <trkpt lat="42.868062006309628" lon="-0.833785962313414">
        <ele>1222</ele>
      </trkpt>
      <trkpt lat="42.867982964962721" lon="-0.833641039207578">
        <ele>1224</ele>
      </trkpt>
      <trkpt lat="42.867953041568398" lon="-0.833610026165843">
        <ele>1224</ele>
      </trkpt>
      <trkpt lat="42.867878023535013" lon="-0.833574989810586">
        <ele>1226</ele>
      </trkpt>
      <trkpt lat="42.867794036865234" lon="-0.833502989262342">
        <ele>1228</ele>
      </trkpt>
      <trkpt lat="42.867778027430177" lon="-0.83347499370575">
        <ele>1229</ele>
      </trkpt>
      <trkpt lat="42.867717007175088" lon="-0.833427971228957">
        <ele>1231</ele>
      </trkpt>
      <trkpt lat="42.867644000798464" lon="-0.833286987617612">
        <ele>1232</ele>
      </trkpt>
      <trkpt lat="42.867620028555393" lon="-0.833224961534142">
        <ele>1233</ele>
      </trkpt>
      <trkpt lat="42.867540987208486" lon="-0.833071991801262">
        <ele>1235</ele>
      </trkpt>
      <trkpt lat="42.86750603467226" lon="-0.833042990416288">
        <ele>1236</ele>
      </trkpt>
      <trkpt lat="42.867434034124017" lon="-0.83298297598958">
        <ele>1236</ele>
      </trkpt>
      <trkpt lat="42.867412995547056" lon="-0.832961015403271">
        <ele>1236</ele>
      </trkpt>
      <trkpt lat="42.867429004982114" lon="-0.832789018750191">
        <ele>1238</ele>
      </trkpt>
      <trkpt lat="42.867439985275269" lon="-0.832751970738173">
        <ele>1240</ele>
      </trkpt>
      <trkpt lat="42.86744199693203" lon="-0.832704026252031">
        <ele>1241</ele>
      </trkpt>
      <trkpt lat="42.867444008588791" lon="-0.832557007670403">
        <ele>1243</ele>
      </trkpt>
      <trkpt lat="42.86742196418345" lon="-0.832418035715818">
        <ele>1244</ele>
      </trkpt>
      <trkpt lat="42.867418024688959" lon="-0.832289038226008">
        <ele>1245</ele>
      </trkpt>
      <trkpt lat="42.867418024688959" lon="-0.832289038226008">
        <ele>1246</ele>
      </trkpt>
      <trkpt lat="42.867418024688959" lon="-0.832273028790951">
        <ele>1247</ele>
      </trkpt>
      <trkpt lat="42.867374019697309" lon="-0.832157023251057">
        <ele>1247</ele>
      </trkpt>
      <trkpt lat="42.867342000827193" lon="-0.831919983029366">
        <ele>1250</ele>
      </trkpt>
      <trkpt lat="42.867316016927361" lon="-0.831795008853078">
        <ele>1252</ele>
      </trkpt>
      <trkpt lat="42.867291960865259" lon="-0.83167196251452">
        <ele>1252</ele>
      </trkpt>
      <trkpt lat="42.867268994450569" lon="-0.831495020538569">
        <ele>1254</ele>
      </trkpt>
      <trkpt lat="42.867229012772441" lon="-0.831321012228727">
        <ele>1257</ele>
      </trkpt>
      <trkpt lat="42.867225995287299" lon="-0.831208024173975">
        <ele>1259</ele>
      </trkpt>
      <trkpt lat="42.867257008329034" lon="-0.831056982278824">
        <ele>1260</ele>
      </trkpt>
      <trkpt lat="42.867353986948729" lon="-0.830880962312222">
        <ele>1263</ele>
      </trkpt>
      <trkpt lat="42.867461023852229" lon="-0.830688010901213">
        <ele>1265</ele>
      </trkpt>
      <trkpt lat="42.867501005530357" lon="-0.830592038109899">
        <ele>1266</ele>
      </trkpt>
      <trkpt lat="42.867562025785446" lon="-0.830509979277849">
        <ele>1269</ele>
      </trkpt>
      <trkpt lat="42.867573006078601" lon="-0.830434039235115">
        <ele>1272</ele>
      </trkpt>
      <trkpt lat="42.867564959451556" lon="-0.830325996503234">
        <ele>1275</ele>
      </trkpt>
      <trkpt lat="42.867563031613827" lon="-0.830302024260163">
        <ele>1276</ele>
      </trkpt>
      <trkpt lat="42.867540987208486" lon="-0.830120975151658">
        <ele>1279</ele>
      </trkpt>
      <trkpt lat="42.867531012743711" lon="-0.82999600097537">
        <ele>1279</ele>
      </trkpt>
      <trkpt lat="42.867515003308654" lon="-0.829905979335308">
        <ele>1279</ele>
      </trkpt>
      <trkpt lat="42.867504023015499" lon="-0.829830039292574">
        <ele>1280</ele>
      </trkpt>
      <trkpt lat="42.867451971396804" lon="-0.829718979075551">
        <ele>1282</ele>
      </trkpt>
      <trkpt lat="42.867381982505322" lon="-0.829573972150683">
        <ele>1284</ele>
      </trkpt>
      <trkpt lat="42.867367984727025" lon="-0.829482022672892">
        <ele>1284</ele>
      </trkpt>
      <trkpt lat="42.867307970300317" lon="-0.829293010756373">
        <ele>1285</ele>
      </trkpt>
      <trkpt lat="42.867262959480286" lon="-0.829051025211811">
        <ele>1285</ele>
      </trkpt>
      <trkpt lat="42.867237981408834" lon="-0.828889003023505">
        <ele>1285</ele>
      </trkpt>
      <trkpt lat="42.867230018600821" lon="-0.828763023018837">
        <ele>1285</ele>
      </trkpt>
      <trkpt lat="42.867218032479286" lon="-0.828708959743381">
        <ele>1285</ele>
      </trkpt>
      <trkpt lat="42.867132034152746" lon="-0.828441996127367">
        <ele>1285</ele>
      </trkpt>
      <trkpt lat="42.867071013897657" lon="-0.82816899754107">
        <ele>1285</ele>
      </trkpt>
      <trkpt lat="42.867058021947742" lon="-0.828137984499335">
        <ele>1285</ele>
      </trkpt>
      <trkpt lat="42.867020973935723" lon="-0.827989960089326">
        <ele>1285</ele>
      </trkpt>
      <trkpt lat="42.867026003077626" lon="-0.827960958704352">
        <ele>1285</ele>
      </trkpt>
      <trkpt lat="42.866975041106343" lon="-0.82780497148633">
        <ele>1284</ele>
      </trkpt>
      <trkpt lat="42.866921983659267" lon="-0.827586958184838">
        <ele>1285</ele>
      </trkpt>
      <trkpt lat="42.866916032508016" lon="-0.827570026740432">
        <ele>1285</ele>
      </trkpt>
      <trkpt lat="42.866907985880971" lon="-0.827553011476994">
        <ele>1285</ele>
      </trkpt>
      <trkpt lat="42.866891976445913" lon="-0.827480005100369">
        <ele>1285</ele>
      </trkpt>
      <trkpt lat="42.866764990612864" lon="-0.827204994857311">
        <ele>1285</ele>
      </trkpt>
      <trkpt lat="42.866653008386493" lon="-0.826968038454652">
        <ele>1285</ele>
      </trkpt>
      <trkpt lat="42.866568015888333" lon="-0.82690198905766">
        <ele>1285</ele>
      </trkpt>
      <trkpt lat="42.866557035595179" lon="-0.826848009601235">
        <ele>1284</ele>
      </trkpt>
      <trkpt lat="42.866509007290006" lon="-0.826700991019607">
        <ele>1283</ele>
      </trkpt>
      <trkpt lat="42.866461984813213" lon="-0.826618010178208">
        <ele>1283</ele>
      </trkpt>
      <trkpt lat="42.866449998691678" lon="-0.8265770226717">
        <ele>1284</ele>
      </trkpt>
      <trkpt lat="42.866439018398523" lon="-0.826479960232973">
        <ele>1284</ele>
      </trkpt>
      <trkpt lat="42.866371041163802" lon="-0.826372001320124">
        <ele>1282</ele>
      </trkpt>
      <trkpt lat="42.866328964009881" lon="-0.826244009658694">
        <ele>1279</ele>
      </trkpt>
      <trkpt lat="42.866301974281669" lon="-0.826197993010283">
        <ele>1278</ele>
      </trkpt>
      <trkpt lat="42.866271967068315" lon="-0.826124986633658">
        <ele>1278</ele>
      </trkpt>
      <trkpt lat="42.866265010088682" lon="-0.826110988855362">
        <ele>1277</ele>
      </trkpt>
      <trkpt lat="42.866179011762142" lon="-0.825843019410968">
        <ele>1276</ele>
      </trkpt>
      <trkpt lat="42.86608999595046" lon="-0.825625006109476">
        <ele>1275</ele>
      </trkpt>
      <trkpt lat="42.866071974858642" lon="-0.825589969754219">
        <ele>1275</ele>
      </trkpt>
      <trkpt lat="42.865994023159146" lon="-0.825472036376596">
        <ele>1274</ele>
      </trkpt>
      <trkpt lat="42.865945994853973" lon="-0.825403975322843">
        <ele>1274</ele>
      </trkpt>
      <trkpt lat="42.865933002904058" lon="-0.825370028614998">
        <ele>1273</ele>
      </trkpt>
      <trkpt lat="42.865902995690703" lon="-0.825330968946218">
        <ele>1272</ele>
      </trkpt>
      <trkpt lat="42.86587500013411" lon="-0.825270032510161">
        <ele>1272</ele>
      </trkpt>
      <trkpt lat="42.865814985707402" lon="-0.825196020305157">
        <ele>1271</ele>
      </trkpt>
      <trkpt lat="42.865795036777854" lon="-0.825144974514842">
        <ele>1271</ele>
      </trkpt>
      <trkpt lat="42.865751031786203" lon="-0.825026035308838">
        <ele>1269</ele>
      </trkpt>
      <trkpt lat="42.865739967674017" lon="-0.824872981756926">
        <ele>1267</ele>
      </trkpt>
      <trkpt lat="42.865669978782535" lon="-0.82462202757597">
        <ele>1266</ele>
      </trkpt>
      <trkpt lat="42.865666039288044" lon="-0.824519013985991">
        <ele>1265</ele>
      </trkpt>
      <trkpt lat="42.865590015426278" lon="-0.824371995404363">
        <ele>1264</ele>
      </trkpt>
      <trkpt lat="42.86553100682795" lon="-0.824201004579663">
        <ele>1263</ele>
      </trkpt>
      <trkpt lat="42.865526983514428" lon="-0.824156999588013">
        <ele>1262</ele>
      </trkpt>
      <trkpt lat="42.865473004058003" lon="-0.823962036520243">
        <ele>1260</ele>
      </trkpt>
      <trkpt lat="42.865403015166521" lon="-0.823752991855145">
        <ele>1259</ele>
      </trkpt>
      <trkpt lat="42.865397986024618" lon="-0.823733964934945">
        <ele>1259</ele>
      </trkpt>
      <trkpt lat="42.865352975204587" lon="-0.823545958846807">
        <ele>1258</ele>
      </trkpt>
      <trkpt lat="42.865327997133136" lon="-0.823467001318932">
        <ele>1257</ele>
      </trkpt>
      <trkpt lat="42.865278962999582" lon="-0.823230966925621">
        <ele>1256</ele>
      </trkpt>
      <trkpt lat="42.865266976878047" lon="-0.823181010782719">
        <ele>1255</ele>
      </trkpt>
      <trkpt lat="42.865236969664693" lon="-0.823123008012772">
        <ele>1254</ele>
      </trkpt>
      <trkpt lat="42.865228001028299" lon="-0.823086965829134">
        <ele>1254</ele>
      </trkpt>
      <trkpt lat="42.865178966894746" lon="-0.822812039405108">
        <ele>1253</ele>
      </trkpt>
      <trkpt lat="42.865176033228636" lon="-0.822794018313289">
        <ele>1253</ele>
      </trkpt>
      <trkpt lat="42.865134039893746" lon="-0.822549015283585">
        <ele>1251</ele>
      </trkpt>
      <trkpt lat="42.865124987438321" lon="-0.822442984208465">
        <ele>1251</ele>
      </trkpt>
      <trkpt lat="42.865120964124799" lon="-0.822380958124995">
        <ele>1250</ele>
      </trkpt>
      <trkpt lat="42.865016022697091" lon="-0.822162022814155">
        <ele>1248</ele>
      </trkpt>
      <trkpt lat="42.864998001605272" lon="-0.822093961760402">
        <ele>1248</ele>
      </trkpt>
      <trkpt lat="42.864964976906776" lon="-0.821984997019172">
        <ele>1247</ele>
      </trkpt>
      <trkpt lat="42.864961959421635" lon="-0.821822974830866">
        <ele>1247</ele>
      </trkpt>
      <trkpt lat="42.864961037412286" lon="-0.821616025641561">
        <ele>1246</ele>
      </trkpt>
      <trkpt lat="42.864965982735157" lon="-0.821359036490321">
        <ele>1243</ele>
      </trkpt>
      <trkpt lat="42.864974029362202" lon="-0.821267003193498">
        <ele>1243</ele>
      </trkpt>
      <trkpt lat="42.864961037412286" lon="-0.820996016263962">
        <ele>1241</ele>
      </trkpt>
      <trkpt lat="42.864960031583905" lon="-0.820873975753784">
        <ele>1240</ele>
      </trkpt>
      <trkpt lat="42.865013005211949" lon="-0.820664009079337">
        <ele>1237</ele>
      </trkpt>
      <trkpt lat="42.865038989111781" lon="-0.820406014099717">
        <ele>1236</ele>
      </trkpt>
      <trkpt lat="42.865051981061697" lon="-0.820191018283367">
        <ele>1235</ele>
      </trkpt>
      <trkpt lat="42.865052986890078" lon="-0.820170985534787">
        <ele>1234</ele>
      </trkpt>
      <trkpt lat="42.865070002153516" lon="-0.820033019408584">
        <ele>1233</ele>
      </trkpt>
      <trkpt lat="42.865077964961529" lon="-0.819910978898406">
        <ele>1232</ele>
      </trkpt>
      <trkpt lat="42.865097997710109" lon="-0.819733031094074">
        <ele>1232</ele>
      </trkpt>
      <trkpt lat="42.865033959969878" lon="-0.819415021687746">
        <ele>1231</ele>
      </trkpt>
      <trkpt lat="42.865062039345503" lon="-0.819104975089431">
        <ele>1229</ele>
      </trkpt>
      <trkpt lat="42.865068996325135" lon="-0.819044960662723">
        <ele>1229</ele>
      </trkpt>
      <trkpt lat="42.865099003538489" lon="-0.818946976214647">
        <ele>1228</ele>
      </trkpt>
      <trkpt lat="42.865131022408605" lon="-0.818826025351882">
        <ele>1228</ele>
      </trkpt>
      <trkpt lat="42.865138985216618" lon="-0.818594014272094">
        <ele>1227</ele>
      </trkpt>
      <trkpt lat="42.865139991044998" lon="-0.818512039259076">
        <ele>1225</ele>
      </trkpt>
      <trkpt lat="42.865151977166533" lon="-0.818482032045722">
        <ele>1225</ele>
      </trkpt>
      <trkpt lat="42.865156000480056" lon="-0.818126974627376">
        <ele>1224</ele>
      </trkpt>
      <trkpt lat="42.865148037672043" lon="-0.818032007664442">
        <ele>1224</ele>
      </trkpt>
      <trkpt lat="42.865171004086733" lon="-0.817935029044747">
        <ele>1224</ele>
      </trkpt>
      <trkpt lat="42.865207968279719" lon="-0.81779396161437">
        <ele>1222</ele>
      </trkpt>
      <trkpt lat="42.865220038220286" lon="-0.817612996324897">
        <ele>1222</ele>
      </trkpt>
      <trkpt lat="42.865243004634976" lon="-0.817471006885171">
        <ele>1221</ele>
      </trkpt>
      <trkpt lat="42.865280974656343" lon="-0.817287024110556">
        <ele>1220</ele>
      </trkpt>
      <trkpt lat="42.865318022668362" lon="-0.817170012742281">
        <ele>1222</ele>
      </trkpt>
      <trkpt lat="42.865319028496742" lon="-0.817170012742281">
        <ele>1222</ele>
      </trkpt>
      <trkpt lat="42.865336965769529" lon="-0.817090971395373">
        <ele>1229</ele>
      </trkpt>
      <trkpt lat="42.865336965769529" lon="-0.817090971395373">
        <ele>1229</ele>
      </trkpt>
      <trkpt lat="42.865336965769529" lon="-0.817090971395373">
        <ele>1229</ele>
      </trkpt>
      <trkpt lat="42.865321962162852" lon="-0.817016959190369">
        <ele>1228</ele>
      </trkpt>
      <trkpt lat="42.865323973819613" lon="-0.816979994997382">
        <ele>1228</ele>
      </trkpt>
      <trkpt lat="42.865326991304755" lon="-0.816942024976015">
        <ele>1227</ele>
      </trkpt>
      <trkpt lat="42.865329002961516" lon="-0.816853009164333">
        <ele>1226</ele>
      </trkpt>
      <trkpt lat="42.865323973819613" lon="-0.816772961989045">
        <ele>1225</ele>
      </trkpt>
      <trkpt lat="42.865306958556175" lon="-0.816729962825775">
        <ele>1226</ele>
      </trkpt>
      <trkpt lat="42.865252979099751" lon="-0.816686963662505">
        <ele>1225</ele>
      </trkpt>
      <trkpt lat="42.865230012685061" lon="-0.816637007519603">
        <ele>1224</ele>
      </trkpt>
      <trkpt lat="42.865188019350171" lon="-0.81658897921443">
        <ele>1221</ele>
      </trkpt>
      <trkpt lat="42.865133034065366" lon="-0.816504992544651">
        <ele>1219</ele>
      </trkpt>
      <trkpt lat="42.865105960518122" lon="-0.816367026418447">
        <ele>1219</ele>
      </trkpt>
      <trkpt lat="42.865104032680392" lon="-0.816311035305262">
        <ele>1218</ele>
      </trkpt>
      <trkpt lat="42.865102021023631" lon="-0.816270969808102">
        <ele>1217</ele>
      </trkpt>
      <trkpt lat="42.865102021023631" lon="-0.816229982301593">
        <ele>1215</ele>
      </trkpt>
      <trkpt lat="42.865073019638658" lon="-0.816177008673549">
        <ele>1212</ele>
      </trkpt>
      <trkpt lat="42.865051981061697" lon="-0.816076006740332">
        <ele>1210</ele>
      </trkpt>
      <trkpt lat="42.865048963576555" lon="-0.815966036170721">
        <ele>1209</ele>
      </trkpt>
      <trkpt lat="42.865032032132149" lon="-0.815928988158703">
        <ele>1208</ele>
      </trkpt>
      <trkpt lat="42.865032032132149" lon="-0.815839972347021">
        <ele>1208</ele>
      </trkpt>
      <trkpt lat="42.865038989111781" lon="-0.815794039517641">
        <ele>1208</ele>
      </trkpt>
      <trkpt lat="42.865047035738826" lon="-0.815694965422153">
        <ele>1208</ele>
      </trkpt>
      <trkpt lat="42.865019040182233" lon="-0.815607961267233">
        <ele>1206</ele>
      </trkpt>
      <trkpt lat="42.865010993555188" lon="-0.815587006509304">
        <ele>1206</ele>
      </trkpt>
      <trkpt lat="42.865003030747175" lon="-0.815547024831176">
        <ele>1205</ele>
      </trkpt>
      <trkpt lat="42.864998001605272" lon="-0.815502014011145">
        <ele>1205</ele>
      </trkpt>
      <trkpt lat="42.864978974685073" lon="-0.815421966835856">
        <ele>1205</ele>
      </trkpt>
      <trkpt lat="42.865001019090414" lon="-0.815087025985122">
        <ele>1205</ele>
      </trkpt>
      <trkpt lat="42.865032032132149" lon="-0.814758036285639">
        <ele>1206</ele>
      </trkpt>
      <trkpt lat="42.865076037123799" lon="-0.814523007720709">
        <ele>1206</ele>
      </trkpt>
      <trkpt lat="42.865070002153516" lon="-0.814497023820877">
        <ele>1206</ele>
      </trkpt>
      <trkpt lat="42.865088023245335" lon="-0.814134003594518">
        <ele>1207</ele>
      </trkpt>
      <trkpt lat="42.865008981898427" lon="-0.813824040815234">
        <ele>1207</ele>
      </trkpt>
      <trkpt lat="42.864875961095095" lon="-0.813566967844963">
        <ele>1208</ele>
      </trkpt>
      <trkpt lat="42.864763978868723" lon="-0.813292041420937">
        <ele>1209</ele>
      </trkpt>
      <trkpt lat="42.864659959450364" lon="-0.812949975952506">
        <ele>1210</ele>
      </trkpt>
      <trkpt lat="42.864628024399281" lon="-0.812582010403275">
        <ele>1211</ele>
      </trkpt>
      <trkpt lat="42.864615032449365" lon="-0.812259977683425">
        <ele>1212</ele>
      </trkpt>
      <trkpt lat="42.864602040499449" lon="-0.811945991590619">
        <ele>1213</ele>
      </trkpt>
      <trkpt lat="42.864593993872404" lon="-0.811678022146225">
        <ele>1214</ele>
      </trkpt>
      <trkpt lat="42.864591982215643" lon="-0.811404017731547">
        <ele>1216</ele>
      </trkpt>
      <trkpt lat="42.864624001085758" lon="-0.811008978635073">
        <ele>1217</ele>
      </trkpt>
      <trkpt lat="42.864637998864055" lon="-0.810934966430068">
        <ele>1217</ele>
      </trkpt>
    </trkseg>
  </trk>

</gpx>